{"version": 0.6, "generator": "Overpass API 0.7.62.5 1bd436f1", "osm3s": {"timestamp_osm_base": "2025-04-16T16:15:29Z", "copyright": "The data included in this document is from www.openstreetmap.org. The data is made available under ODbL."}, "elements": [{"type": "node", "id": 780856, "lat": 51.50607, "lon": -0.2263134, "tags": {"fare_zone": "2", "line": "Hammersmith & City;Circle", "name": "Shepherd's Bush Market", "name:ru": "\u0428\u0435\u043f\u0435\u0440\u0434\u0441-\u0411\u0443\u0448-\u041c\u0430\u0440\u043a\u0435\u0442", "naptan:AtcoCode": "940GZZLUSBM", "network": "London Underground", "public_transport": "station", "railway": "station", "source_ref": "http://en.wikipedia.org/wiki/List_of_London_Underground_stations", "station": "subway", "subway": "yes", "wheelchair": "no", "wikidata": "Q1857909", "wikipedia": "en:Shepherd's Bush Market tube station"}}, {"type": "node", "id": 2013971, "lat": 51.6008355, "lon": -0.192318, "tags": {"fare_zone": "4", "line": "Northern", "name": "Finchley Central", "naptan:AtcoCode": "940GZZLUFYC", "network": "London Underground", "network:wikidata": "Q20075", "old_name": "Finchley (Church End)", "operator": "Transport for London", "operator:wikidata": "Q682520", "public_transport": "station", "railway": "station", "station": "subway", "subway": "yes", "wheelchair": "yes", "wikidata": "Q1416721", "wikipedia": "en:Finchley Central tube station"}}, {"type": "node", "id": 15026054, "lat": 51.4922264, "lon": -0.1558767, "tags": {"fare_zone": "1", "line": "District;Circle", "name": "Sloane Square", "name:ru": "\u0421\u043b\u043e\u0443\u043d-\u0441\u043a\u0432\u0435\u0440", "naptan:AtcoCode": "940GZZLUSSQ", "network": "London Underground", "network:wikidata": "Q20075", "platforms": "2", "public_transport": "station", "railway": "station", "station": "subway", "subway": "yes", "train": "yes", "wheelchair": "no", "wikidata": "Q1530578", "wikipedia": "en:Sloane Square tube station"}}, {"type": "node", "id": 18089211, "lat": 51.4220721, "lon": -0.2052902, "tags": {"fare_zone": "3", "line": "District", "name": "Wimbledon", "name:ru": "\u0423\u0438\u043c\u0431\u043b\u0434\u043e\u043d", "naptan:AtcoCode": "9100WIMBLDN", "network": "National Rail;London Underground;London Trams", "network:website": "https://www.nationalrail.co.uk/stations/wim/", "network:wikidata": "Q26334", "operator": "South Western Railway", "operator:wikidata": "Q30602320", "public_transport": "station", "railway": "station", "ref:crs": "WIM", "source_ref": "https//en.wikipedia.org/wiki/List_of_London_Underground_stations", "station": "subway", "subway": "yes", "train": "yes", "tram": "yes", "wheelchair": "yes", "wheelchair:description": "Step-free access street to platform", "wikidata": "Q801616", "wikipedia": "en:Wimbledon station"}}, {"type": "node", "id": 18395696, "lat": 51.5118924, "lon": -0.0952228, "tags": {"fare_zone": "1", "line": "District;Circle", "name": "Mansion House", "name:ru": "\u041c\u044d\u043d\u0448\u043d \u0425\u0430\u0443\u0441", "naptan:AtcoCode": "940GZZLUMSH", "network": "London Underground", "operator": "Transport for London", "platforms": "3", "public_transport": "station", "railway": "station", "ref": "ZMH", "source:name": "local knowledge", "start_date": "1871-07-03", "station": "subway", "subway": "yes", "wheelchair": "no", "wikidata": "Q1477336", "wikimedia_commons": "Category:Mansion House tube station", "wikipedia": "en:Mansion House tube station"}}, {"type": "node", "id": 19135534, "lat": 51.5851618, "lon": -0.3631762, "tags": {"fare_zone": "5", "line": "Metropolitan", "name": "North Harrow", "naptan:AtcoCode": "940GZZLUNHA", "network": "London Underground", "network:wikidata": "Q20075", "operator": "London Underground", "public_transport": "station", "railway": "station", "station": "subway", "subway": "yes", "wheelchair": "no", "wikidata": "Q645943", "wikipedia": "en:North Harrow tube station"}}, {"type": "node", "id": 20455533, "lat": 51.5922178, "lon": -0.3348748, "tags": {"fare_zone": "5", "line": "Bakerloo", "name": "Harrow & Wealdstone", "naptan:AtcoCode": "9100HROW", "network": "London Underground;London Overground", "network:subway": "London Underground", "network:train": "London Overground;National Rail", "network:website": "https://www.nationalrail.co.uk/stations/hrw/", "network:wikidata": "Q26334", "operator": "London Underground", "public_transport": "station", "railway": "station", "ref:crs": "HRW", "source:network": "Sign", "source_ref": "http://en.wikipedia.org/wiki/List_of_London_railway_stations;http://en.wikipedia.org/wiki/List_of_London_Underground_stations;http://en.wikipedia.org/wiki/London_Overground#Stations", "station": "subway", "subway": "yes", "train": "yes", "wheelchair": "yes", "wikidata": "Q800896", "wikipedia": "en:Harrow & Wealdstone station"}}, {"type": "node", "id": 20698948, "lat": 51.5174885, "lon": -0.2887523, "tags": {"fare_zone": "3", "line": "Piccadilly", "name": "North Ealing", "naptan:AtcoCode": "940GZZLUNEN", "network": "London Underground", "public_transport": "station", "railway": "station", "source": "NPE", "station": "subway", "subway": "yes", "wheelchair": "no", "wikidata": "Q1272075", "wikipedia": "en:North Ealing tube station"}}, {"type": "node", "id": 21123677, "lat": 51.5606573, "lon": -0.4104614, "tags": {"fare_zone": "5", "line": "Central", "name": "Ruislip Gardens", "naptan:AtcoCode": "940GZZLURSG", "network": "London Underground", "network:wikidata": "Q20075", "operator": "London Underground", "public_transport": "station", "railway": "station", "source": "NPE", "source_ref": "http://en.wikipedia.org/wiki/List_of_London_Underground_stations", "station": "subway", "subway": "yes", "wheelchair": "no", "wikidata": "Q1718915", "wikipedia": "en:Ruislip Gardens tube station"}}, {"type": "node", "id": 21141345, "lat": 51.5703076, "lon": -0.3085107, "tags": {"fare_zone": "4", "line": "Bakerloo", "name": "South Kenton", "naptan:AtcoCode": "9100SKENTON", "network": "London Underground;London Overground", "network:subway": "London Overground", "network:train": "London Overground", "network:website": "https://www.nationalrail.co.uk/stations/sok/", "network:wikidata": "Q26334", "operator": "Transport for London", "public_transport": "station", "railway": "station", "ref:crs": "SOK", "ref:stanox": "72009", "ref:tiploc": "SKENTON", "source": "NPE", "source:network": "Sign", "source_ref": "http://en.wikipedia.org/wiki/List_of_London_Underground_stations;http://en.wikipedia.org/wiki/London_Overground#Stations", "station": "subway", "subway": "yes", "train": "yes", "wheelchair": "no", "wikidata": "Q801454", "wikipedia": "en:South Kenton station"}}, {"type": "node", "id": 21141346, "lat": 51.5624017, "lon": -0.3038698, "tags": {"fare_zone": "4", "line": "Bakerloo", "name": "North Wembley", "naptan:AtcoCode": "9100NWEMBLY", "network": "London Underground;London Overground", "network:subway": "London Overground", "network:train": "London Overground", "network:website": "https://www.nationalrail.co.uk/stations/nwb/", "network:wikidata": "Q26334", "operator": "Transport for London", "public_transport": "station", "railway": "station", "ref:crs": "NWB", "ref:stanox": "72010", "ref:tiploc": "NWEMBLY", "source": "NPE", "source:network": "Sign", "source_ref": "http://en.wikipedia.org/wiki/List_of_London_Underground_stations;http://en.wikipedia.org/wiki/London_Overground#Stations", "station": "subway", "subway": "yes", "wheelchair": "no", "wikidata": "Q730267", "wikipedia": "en:North Wembley station"}}, {"type": "node", "id": 21442171, "lat": 51.4356228, "lon": -0.1597188, "tags": {"fare_zone": "3", "line": "Northern", "name": "Tooting Bec", "name:ru": "\u0422\u0443\u0442\u0438\u043d\u0433-\u0411\u0435\u043a", "naptan:AtcoCode": "940GZZLUTBC", "network": "London Underground", "network:wikidata": "Q20075", "operator": "Transport for London", "operator:wikidata": "Q682520", "public_transport": "station", "railway": "station", "station": "subway", "subway": "yes", "wheelchair": "no", "wikidata": "Q1424421", "wikipedia": "en:Tooting Bec tube station"}}, {"type": "node", "id": 21507731, "lat": 51.4651241, "lon": -0.1299205, "tags": {"fare_zone": "2", "line": "Northern", "name": "Clapham North", "name:ru": "\u041a\u043b\u044d\u043f\u0445\u0435\u043c-\u041d\u043e\u0440\u0442", "naptan:AtcoCode": "940GZZLUCPN", "network": "London Underground", "network:wikidata": "Q20075", "operator": "London Underground", "public_transport": "station", "railway": "station", "station": "subway", "subway": "yes", "wheelchair": "no", "wikidata": "Q1095082", "wikipedia": "en:Clapham North tube station"}}, {"type": "node", "id": 21507733, "lat": 51.4818339, "lon": -0.1123953, "tags": {"fare_zone": "2", "line": "Northern", "name": "Oval", "name:ru": "\u041e\u0432\u0430\u043b", "naptan:AtcoCode": "940GZZLUOVL", "network": "London Underground", "network:wikidata": "Q20075", "public_transport": "station", "railway": "station", "station": "subway", "subway": "yes", "wheelchair": "no", "wikidata": "Q426804", "wikimedia_commons": "Category:Oval tube station", "wikipedia": "en:Oval tube station"}}, {"type": "node", "id": 21507827, "lat": 51.4882861, "lon": -0.1058829, "tags": {"fare_zone": "1;2", "line": "Northern", "name": "Kennington", "name:ru": "\u041a\u0435\u043d\u043d\u0438\u043d\u0433\u0442\u043e\u043d", "naptan:AtcoCode": "940GZZLUKNG", "network": "London Underground", "network:wikidata": "Q20075", "operator": "Transport for London", "operator:wikidata": "Q682520", "public_transport": "station", "railway": "station", "source_ref": "http://en.wikipedia.org/wiki/List_of_London_Underground_stations#cite_note-usage-6", "station": "subway", "subway": "yes", "wheelchair": "no", "wheelchair:description": "Cross-platform interchange in same direction only. No entry or exit.", "wikidata": "Q1738951", "wikipedia": "en:Kennington tube station"}}, {"type": "node", "id": 25524263, "lat": 51.4992816, "lon": -0.1345942, "tags": {"fare_zone": "1", "line": "District;Circle", "loc_name": "Saint James Park", "name": "St. James's Park", "name:ru": "\u0421\u0435\u043d\u0442-\u0414\u0436\u0435\u0439\u043c\u0441 \u041f\u0430\u0440\u043a", "naptan:AtcoCode": "940GZZLUSJP", "network": "London Underground", "operator": "London Underground", "platforms": "2", "public_transport": "station", "railway": "station", "station": "subway", "subway": "yes", "wheelchair": "no", "wikidata": "Q1567095", "wikipedia": "en:St James's Park tube station"}}, {"type": "node", "id": 25534427, "lat": 51.5013562, "lon": -0.1249302, "tags": {"fare_zone": "1", "line": "District;Circle;Jubilee", "name": "Westminster", "name:da": "Westminster Station", "name:ru": "\u0412\u0435\u0441\u0442\u043c\u0438\u043d\u0441\u0442\u0435\u0440", "naptan:AtcoCode": "940GZZLUWSM", "network": "London Underground", "public_transport": "station", "railway": "station", "station": "subway", "subway": "yes", "wheelchair": "yes", "wheelchair:description": "Lifts link all platforms on Jubilee and Circle/District lines. (photos to follow)", "wikidata": "Q1135834", "wikimedia_commons": "Category:Westminster tube station", "wikipedia": "en:Westminster tube station"}}, {"type": "node", "id": 26652919, "lat": 51.4626818, "lon": -0.1147325, "tags": {"fare_zone": "2", "line": "Victoria", "name": "Brixton", "name:ru": "\u0411\u0440\u0438\u043a\u0441\u0442\u043e\u043d", "naptan:AtcoCode": "940GZZLUBXN", "network": "London Underground", "network:wikidata": "Q20075", "operator": "London Underground", "platforms": "2", "public_transport": "station", "railway": "station", "station": "subway", "subway": "yes", "wheelchair": "yes", "wikidata": "Q117586", "wikimedia_commons": "Category:Brixton tube station", "wikipedia": "en:Brixton tube station"}}, {"type": "node", "id": 29859288, "lat": 51.5867174, "lon": -0.0416453, "tags": {"fare_zone": "3", "line": "Victoria", "name": "Blackhorse Road", "name:ru": "\u0411\u043b\u044d\u043a\u0445\u043e\u0440\u0441-\u0440\u043e\u0443\u0434", "naptan:AtcoCode": "9100BLCHSRD", "network": "London Underground;London Overground", "network:subway": "London Overground", "network:train": "London Overground", "network:website": "https://www.nationalrail.co.uk/stations/bho/", "network:wikidata": "Q26334", "operator": "London Underground", "platforms": "4", "public_transport": "station", "railway": "station", "ref:crs": "BHO", "source": "local knowledge", "source_ref": "http://en.wikipedia.org/wiki/List_of_London_railway_stations;http://en.wikipedia.org/wiki/London_Overground#Stations", "station": "subway", "subway": "yes", "wheelchair": "limited", "wheelchair:description": "London Overground only. Access from platform to train by manual boarding ramp.", "wikidata": "Q800541", "wikipedia": "en:Blackhorse Road station"}}, {"type": "node", "id": 34006946, "lat": 51.4527671, "lon": -0.1476057, "tags": {"fare_zone": "2;3", "line": "Northern", "name": "Clapham South", "name:ru": "\u041a\u043b\u044d\u043f\u0445\u0435\u043c-\u0421\u0430\u0443\u0442", "naptan:AtcoCode": "940GZZLUCPS", "network": "London Underground", "network:wikidata": "Q20075", "public_transport": "station", "railway": "station", "station": "subway", "subway": "yes", "wheelchair": "no", "wikidata": "Q1095083", "wikipedia": "en:Clapham South tube station"}}, {"type": "node", "id": 34007928, "lat": 51.4433857, "lon": -0.1528977, "tags": {"fare_zone": "3", "line": "Northern", "name": "Balham", "naptan:AtcoCode": "940GZZLUBLM", "network": "London Underground", "network:website": "https://www.nationalrail.co.uk/stations/bal/", "network:wikidata": "Q20075", "not:network:wikidata": "Q111297173", "operator": "Transport for London", "operator:wikidata": "Q682520", "public_transport": "station", "railway": "station", "station": "subway", "subway": "yes", "wheelchair": "no", "wheelchair:description": "LU station not accessible. However, NR station is step-free to platform via the LU entrance.", "wikidata": "Q579345", "wikipedia": "en:Balham station"}}, {"type": "node", "id": 34037748, "lat": 51.4277387, "lon": -0.1682905, "tags": {"air_conditioning": "no", "fare_zone": "3", "internet_access": "wlan", "internet_access:fee": "no", "line": "Northern", "name": "Tooting Broadway", "name:ru": "\u0422\u0443\u0442\u0438\u043d\u0433-\u0411\u0440\u043e\u0434\u0432\u0435\u0439", "naptan:AtcoCode": "940GZZLUTBY", "network": "London Underground", "network:wikidata": "Q20075", "not:network:wikidata": "Q746021", "operator": "Transport for London", "operator:wikidata": "Q682520", "public_transport": "station", "railway": "station", "station": "subway", "subway": "yes", "wheelchair": "no", "wikidata": "Q685100", "wikipedia": "en:Tooting Broadway tube station"}}, {"type": "node", "id": 34037750, "lat": 51.4182747, "lon": -0.1778626, "tags": {"fare_zone": "3", "line": "Northern", "name": "Colliers Wood", "naptan:AtcoCode": "940GZZLUCSD", "network": "London Underground", "operator": "Transport for London", "public_transport": "station", "railway": "station", "station": "subway", "subway": "yes", "wheelchair": "no", "wikidata": "Q1109527", "wikipedia": "en:Colliers Wood tube station"}}, {"type": "node", "id": 34037860, "lat": 51.4151759, "lon": -0.1926457, "tags": {"addr:city": "London", "addr:street": "Morden Road", "fare_zone": "3;4", "internet_access": "yes", "line": "Northern", "name": "South Wimbledon", "naptan:AtcoCode": "940GZZLUSWN", "network": "London Underground", "network:wikidata": "Q20075", "not:network:wikidata": "Q111297173", "operator": "TFL", "public_transport": "station", "railway": "station", "ref": "ZSI", "station": "subway", "subway": "yes", "wheelchair": "no", "wikidata": "Q1974760", "wikipedia": "en:South Wimbledon tube station"}}, {"type": "node", "id": 34595046, "lat": 51.5763203, "lon": 0.0454097, "tags": {"fare_zone": "4", "line": "Central", "name": "Redbridge", "naptan:AtcoCode": "940GZZLURBG", "network": "London Underground", "network:wikidata": "Q20075", "public_transport": "station", "railway": "station", "ref": "ZRE", "source_ref": "http://en.wikipedia.org/wiki/List_of_London_Underground_stations", "station": "subway", "subway": "yes", "wheelchair": "no", "wikidata": "Q1974732", "wikipedia": "en:Redbridge tube station"}}, {"type": "node", "id": 70804547, "lat": 51.5256284, "lon": -0.0876094, "tags": {"addr:city": "London", "addr:street": "Old Street", "fare_zone": "1", "line": "Northern City;Northern", "name": "Old Street", "name:da": "Old Street Station", "name:ru": "\u041e\u043b\u0434-\u0441\u0442\u0440\u0438\u0442", "naptan:AtcoCode": "9100OLDST", "network": "National Rail;London Underground", "network:subway": "London Underground", "network:train": "National Rail", "network:website": "https://www.nationalrail.co.uk/stations/old/", "network:wikidata": "Q26334", "operator": "London Underground", "public_transport": "station", "railway": "station", "ref:crs": "OLD", "source_ref": "http://en.wikipedia.org/wiki/List_of_London_railway_stations", "station": "subway", "subway": "yes", "train": "yes", "wheelchair": "no", "wheelchair:description": "Steps between lower Northern & higher National Rail station levels. No Lifts.", "wikidata": "Q801299", "wikipedia": "en:Old Street station"}}, {"type": "node", "id": 89137908, "lat": 51.5815255, "lon": -0.3166378, "tags": {"fare_zone": "4", "line": "Bakerloo", "name": "Kenton", "naptan:AtcoCode": "9100KTON", "network": "London Underground;London Overground", "network:subway": "London Overground", "network:train": "London Overground", "network:website": "https://www.nationalrail.co.uk/stations/knt/", "network:wikidata": "Q26334", "operator": "Transport for London", "public_transport": "station", "railway": "station", "ref:crs": "KNT", "ref:stanox": "72008", "ref:tiploc": "KTON", "source:network": "Sign", "source_ref": "http://en.wikipedia.org/wiki/List_of_London_railway_stations;http://en.wikipedia.org/wiki/London_Overground#Stations;http://en.wikipedia.org/wiki/List_of_London_Underground_stations#cite_note-usage-6", "station": "subway", "subway": "yes", "wheelchair": "no", "wikidata": "Q801001", "wikipedia": "en:Kenton station"}}, {"type": "node", "id": 119274464, "lat": 51.530609, "lon": -0.1239491, "tags": {"fare_zone": "1", "line": "Metropolitan;Northern;Piccadilly;Circle;Victoria;Hammersmith & City", "name": "King's Cross St Pancras", "name:he": "\u05ea\u05d7\u05e0\u05ea \u05d4\u05e8\u05db\u05d1\u05ea \u05d4\u05ea\u05d7\u05ea\u05d9\u05ea \u05e7\u05d9\u05e0\u05d2\u05e1 \u05e7\u05e8\u05d5\u05e1 \u05e1\u05d9\u05d9\u05e0\u05d8 \u05e4\u05e0\u05e7\u05e8\u05d0\u05e1", "name:ru": "\u041a\u0438\u043d\u0433\u0441-\u041a\u0440\u043e\u0441\u0441 \u0421\u0435\u043d\u0442-\u041f\u0430\u043d\u043a\u0440\u0430\u0441\u0441", "naptan:AtcoCode": "940GZZLUKSX", "network": "London Underground", "note": "Official name: King's Cross St Pancras Underground Station", "operator": "London Underground", "public_transport": "station", "railway": "station", "ref": "ZKX", "source_ref": "http://en.wikipedia.org/wiki/List_of_London_Underground_stations#cite_note-usage-6", "station": "subway", "subway": "yes", "wheelchair": "yes", "wikidata": "Q826120", "wikipedia": "en:King's Cross St Pancras tube station"}}, {"type": "node", "id": 181662604, "lat": 51.472211, "lon": -0.1225014, "tags": {"fare_zone": "2", "line": "Northern;Victoria", "name": "Stockwell", "name:ru": "\u0421\u0442\u043e\u043a\u0443\u044d\u043b\u043b", "naptan:AtcoCode": "9400ZZLUSKW", "network": "London Underground", "network:wikidata": "Q20075", "operator": "London Underground", "platforms": "4", "public_transport": "station", "railway": "station", "source_ref": "https//en.wikipedia.org/wiki/List_of_London_Underground_stations", "station": "subway", "subway": "yes", "wheelchair": "no", "wheelchair:description": "Cross-platform interchange in same direction only. No entry or exit.", "wikidata": "Q1549562", "wikimedia_commons": "Category:Stockwell tube station", "wikipedia": "en:Stockwell tube station"}}, {"type": "node", "id": 186194628, "lat": 51.5583839, "lon": -0.1074866, "tags": {"fare_zone": "2", "line": "Piccadilly", "name": "Arsenal", "name:ar": "\u0622\u0631\u0633\u064a\u0646\u0627\u0644", "name:cs": "Arsenal", "name:de": "Arsenal", "name:en": "Arsenal tube station", "name:fa": "\u0627\u06cc\u0633\u062a\u06af\u0627\u0647 \u0645\u062a\u0631\u0648\u06cc \u0622\u0631\u0633\u0646\u0627\u0644", "name:fi": "Arsenalin metroasema", "name:fr": "Arsenal", "name:gan": "\u963f\u68ee\u7d0d\u7ad9", "name:hu": "Arsenal metr\u00f3\u00e1llom\u00e1s", "name:it": "Arsenal", "name:ja": "\u30a2\u30fc\u30bb\u30ca\u30eb\u99c5", "name:lmo": "Arsenal", "name:nl": "Arsenal", "name:no": "Arsenal undergrunnsstasjon", "name:pl": "Arsenal", "name:uk": "\u0410\u0440\u0441\u0435\u043d\u0430\u043b", "name:ur": "\u0622\u0631\u0633\u0646\u0644 \u0679\u06cc\u0648\u0628 \u0627\u0633\u0679\u06cc\u0634\u0646", "name:yi": "\u05d0\u05e8\u05e1\u05e2\u05e0\u05d0\u05dc \u05d0\u05d5\u05e0\u05d8\u05e2\u05e8\u05d2\u05e8\u05d5\u05e0\u05d8 \u05e1\u05d8\u05d0\u05e0\u05e6\u05d9\u05e2", "name:yue": "\u963f\u4ed9\u5974\u7ad9", "name:zh": "\u963f\u4ed9\u5974\u7ad9", "naptan:AtcoCode": "940GZZLUASL", "network": "London Underground", "operator": "London Underground", "platforms": "2", "public_transport": "station", "railway": "station", "station": "subway", "subway": "yes", "wheelchair": "no", "wikidata": "Q262548", "wikipedia": "en:Arsenal tube station"}}, {"type": "node", "id": 208338600, "lat": 51.5296972, "lon": -0.0977626, "tags": {"historic:railway": "station", "line": "Northern", "name": "City Road", "network": "London Underground", "railway": "site", "source": "Yahoo", "station": "subway", "subway": "yes", "wikidata": "Q1093983"}}, {"type": "node", "id": 273210309, "lat": 51.4892267, "lon": -0.1334879, "tags": {"fare_zone": "1", "internet_access": "wlan", "line": "Victoria", "name": "Pimlico", "name:ru": "\u041f\u0438\u043c\u043b\u0438\u043a\u043e", "naptan:AtcoCode": "940GZZLUPCO", "network": "London Underground", "network:wikidata": "Q20075", "not:network:wikidata": "Q111297173", "operator": "Transport for London", "platforms": "2", "public_transport": "station", "railway": "station", "station": "subway", "subway": "yes", "wheelchair": "no", "wikidata": "Q1473963", "wikipedia": "en:Pimlico tube station"}}, {"type": "node", "id": 441947584, "lat": 51.4963688, "lon": -0.1431522, "tags": {"fare_zone": "1", "line": "District;Circle;Victoria", "name": "Victoria", "name:ru": "\u0412\u0438\u043a\u0442\u043e\u0440\u0438\u044f", "naptan:AtcoCode": "940GZZLUVIC", "network": "London Underground", "network:wikidata": "Q20075", "not:network:wikidata": "Q111297173", "operator": "London Underground", "platforms": "4", "public_transport": "station", "railway": "station", "station": "subway", "subway": "yes", "wheelchair": "yes", "wikidata": "Q985210", "wikipedia": "en:London Victoria station"}}, {"type": "node", "id": 443640800, "lat": 51.5589708, "lon": 0.2516815, "tags": {"fare_zone": "6", "line": "District", "name": "Upminster", "name:nl": "Station Upminster", "naptan:AtcoCode": "9100UPMNSTR;9100UPMNSP6;9400ZZLUUPM", "network": "National Rail;London Underground;London Overground", "network:website": "https://www.nationalrail.co.uk/stations/upm/", "network:wikidata": "Q26334", "operator": "c2c", "public_transport": "station", "railway": "station", "ref:crs": "UPM", "station": "subway", "subway": "yes", "train": "yes", "wheelchair": "yes", "wikidata": "Q801547", "wikipedia": "en:Upminster station"}}, {"type": "node", "id": 469760990, "lat": 51.5636297, "lon": -0.2800532, "tags": {"fare_zone": "4", "line": "Metropolitan;Jubilee", "name": "Wembley Park", "naptan:AtcoCode": "490000257374", "naptan:Bearing": "N", "naptan:CommonName": "Wembley Park", "naptan:Indicator": "86374", "naptan:verified": "no", "network": "London Underground", "operator": "Transport for London", "public_transport": "station", "railway": "station", "ref": "ZWY", "source": "naptan_import;survey", "station": "subway", "subway": "yes", "survey:date": "2013-08-23", "wheelchair": "yes", "wikidata": "Q956849", "wikipedia": "en:Wembley Park tube station"}}, {"type": "node", "id": 561297695, "lat": 51.5648345, "lon": -0.1064144, "tags": {"fare_zone": "2", "line": "Piccadilly;Victoria", "name": "Finsbury Park", "naptan:AtcoCode": "9100FNPK", "network": "National Rail;London Underground", "network:subway": "London Underground", "network:train": "National Rail", "network:website": "https://www.nationalrail.co.uk/stations/fpk/", "network:wikidata": "Q26334", "operator": "Great Northern;London Underground", "operator:subway": "London Underground", "operator:train": "Great Northern", "public_transport": "station", "railway": "station", "ref:crs": "FPK", "ref:tiploc": "FNPK", "source_ref": "http://en.wikipedia.org/wiki/List_of_London_railway_stations;http://en.wikipedia.org/wiki/List_of_London_Underground_stations", "station": "subway", "subway": "yes", "train": "yes", "wheelchair": "yes", "wheelchair:description": "Step-free access street to train", "wikidata": "Q536796", "wikipedia": "en:Finsbury Park station"}}, {"type": "node", "id": 1264468143, "lat": 51.5225862, "lon": -0.1567349, "tags": {"fare_zone": "1", "line": "Circle;Hammersmith & City;Bakerloo;Jubilee;Metropolitan", "loc_name": "Baker Street tube station", "name": "Baker Street", "name:ru": "\u0411\u0435\u0439\u043a\u0435\u0440-\u0441\u0442\u0440\u0438\u0442", "naptan:AtcoCode": "940GZZLUBST", "network": "London Underground", "public_transport": "station", "railway": "station", "ref": "ZBS", "source": "http://en.wikipedia.org/wiki/List_of_London_Underground_stations", "station": "subway", "subway": "yes", "wheelchair": "limited", "wheelchair:description": "You can change between terminating Metropolitan line trains and trains continuing towards Aldgate. You can change between the Bakerloo line southbound by manual boarding ramp and the Jubilee line southbound. You can also change between the Bakerloo line n", "wikidata": "Q616218", "wikipedia": "en:Baker Street tube station"}}, {"type": "node", "id": 1264482797, "lat": 51.5154795, "lon": -0.175365, "tags": {"fare_zone": "1", "line": "District;Circle;Bakerloo", "name": "Paddington", "name:ru": "\u041f\u0430\u0434\u0434\u0438\u043d\u0433\u0442\u043e\u043d", "naptan:AtcoCode": "9400ZZLUPAC", "network": "London Underground", "old_name": "Praed Street", "public_transport": "station", "railway": "station", "ref": "ZPA", "station": "subway", "subway": "yes", "wheelchair": "yes", "wikidata": "Q214788", "wikipedia": "en:Paddington tube station (Bakerloo, Circle and District lines)"}}, {"type": "node", "id": 1389887370, "lat": 51.5654371, "lon": -0.1349977, "tags": {"fare_zone": "2;3", "line": "Northern", "name": "Archway", "name:ru": "\u0410\u0440\u0447\u0432\u0435\u0439", "naptan:AtcoCode": "940GZZLUACY", "network": "London Underground", "operator": "London Underground", "public_transport": "station", "railway": "station", "source_ref": "http://en.wikipedia.org/wiki/List_of_London_Underground_stations", "station": "subway", "subway": "yes", "wheelchair": "no", "wikidata": "Q636351", "wikipedia": "en:Archway tube station"}}, {"type": "node", "id": 1525365505, "lat": 51.5173451, "lon": -0.248137, "tags": {"fare_zone": "2", "line": "Central", "name": "East Acton", "name:ru": "\u0418\u0441\u0442-\u0410\u043a\u0442\u043e\u043d", "naptan:AtcoCode": "940GZZLUEAN", "network": "London Underground", "operator": "London Underground", "platforms": "2", "public_transport": "station", "railway": "station", "source_ref": "http://en.wikipedia.org/wiki/List_of_London_Underground_stations", "start_date": "1920-08-03", "station": "subway", "subway": "yes", "wheelchair": "no", "wikidata": "Q1277721", "wikimedia_commons": "Category:East Acton tube station", "wikipedia": "en:East Acton tube station"}}, {"type": "node", "id": 1586683103, "lat": 51.5808033, "lon": 0.0215864, "tags": {"fare_zone": "4", "line": "Central", "name": "Snaresbrook", "naptan:AtcoCode": "940GZZLUSNB", "network": "London Underground", "network:wikidata": "Q20075", "platforms": "2", "public_transport": "station", "railway": "station", "station": "subway", "subway": "yes", "wheelchair": "no", "wikidata": "Q2120057", "wikipedia": "en:Snaresbrook tube station"}}, {"type": "node", "id": 1637578440, "lat": 51.5131048, "lon": -0.0893749, "tags": {"fare_zone": "1", "light_rail": "yes", "line": "Northern;Central;Waterloo & City", "name": "Bank", "name:ru": "\u0411\u044d\u043d\u043a", "naptan:AtcoCode": "940GZZLUBNK", "network": "London Underground;Docklands Light Railway", "platforms": "8", "public_transport": "station", "railway": "station", "source_ref": "http://en.wikipedia.org/wiki/List_of_Docklands_Light_Railway_stations", "start_date": "1898-08-08", "station": "subway", "subway": "yes", "wheelchair": "limited", "wikidata": "Q806704", "wikimedia_commons": "Category:Bank and Monument stations", "wikipedia": "en:Bank and Monument stations"}}, {"type": "node", "id": 1645907858, "lat": 51.4588093, "lon": -0.4454717, "tags": {"description": "Heathrow Terminal 4 - Piccadilly Line - Westbound -> to Terminal 1,2,3", "fare_zone": "6", "level": "-2", "line": "Piccadilly", "name": "Heathrow Terminal 4", "naptan:AtcoCode": "9100HTRWTM4", "network": "London Underground", "network:website": "https://www.nationalrail.co.uk/stations/haf/", "network:wikidata": "Q20075", "public_transport": "station", "railway": "station", "source:name": "https//en.wikipedia.org/wiki/List_of_London_Underground_stations", "source_ref:network": "https//en.wikipedia.org/wiki/List_of_London_railway_stations", "station": "subway", "subway": "yes", "wheelchair": "yes", "wheelchair:description": "Step-free access street to train", "wikidata": "Q1592614", "wikipedia": "en:Heathrow Terminal 4 tube station"}}, {"type": "node", "id": 1651498764, "lat": 51.4903477, "lon": -0.2144055, "tags": {"fare_zone": "2", "line": "District;Piccadilly", "name": "Barons Court", "name:ru": "\u0411\u0430\u0440\u043e\u043d\u0441-\u041a\u043e\u0440\u0442", "naptan:AtcoCode": "940GZZLUBSC", "network": "London Underground", "network:wikidata": "Q20075", "platforms": "2", "public_transport": "station", "railway": "station", "ref": "ZBQ", "station": "subway", "subway": "yes", "wheelchair": "no", "wikidata": "Q808729", "wikipedia": "en:Barons Court tube station"}}, {"type": "node", "id": 1651504140, "lat": 51.6164256, "lon": -0.1330981, "tags": {"fare_zone": "4", "line": "Piccadilly", "name": "Arnos Grove", "naptan:AtcoCode": "940GZZLUASG", "network": "London Underground", "network:wikidata": "Q20075", "operator": "Transport for London", "operator:wikidata": "Q682520", "platforms": "2", "public_transport": "station", "railway": "station", "station": "subway", "subway": "yes", "wheelchair": "no", "wikidata": "Q697151", "wikipedia": "en:Arnos Grove tube station"}}, {"type": "node", "id": 1670707904, "lat": 51.5324874, "lon": -0.1060356, "tags": {"addr:city": "London", "addr:postcode": "N1 9LQ", "addr:street": "Islington High Street", "fare_zone": "1", "internet_access": "wlan", "line": "Northern", "name": "Angel", "name:da": "Angel Station", "name:ru": "\u042d\u043d\u0434\u0436\u0435\u043b", "naptan:AtcoCode": "940GZZLUAGL", "network": "London Underground", "operator": "London Underground", "public_transport": "station", "railway": "station", "source_ref": "http://en.wikipedia.org/wiki/List_of_London_Underground_stations", "station": "subway", "subway": "yes", "wheelchair": "no", "wikidata": "Q531444", "wikipedia": "en:Angel tube station"}}, {"type": "node", "id": 1670707917, "lat": 51.5394397, "lon": -0.1426957, "tags": {"fare_zone": "2", "line": "Northern", "name": "Camden Town", "name:ru": "\u041a\u0430\u043c\u0434\u0435\u043d-\u0442\u0430\u0443\u043d", "naptan:AtcoCode": "940GZZLUCTN", "network": "London Underground", "public_transport": "station", "railway": "station", "source_ref": "https//en.wikipedia.org/wiki/List_of_London_Underground_stations", "station": "subway", "subway": "yes", "wheelchair": "limited", "wheelchair:description": "You can change between the northbound platform toward High Barnet and the northbound platform towards Edgeware.", "wikidata": "Q1028430", "wikipedia": "en:Camden Town tube station"}}, {"type": "node", "id": 1670707933, "lat": 51.5871881, "lon": -0.1648137, "tags": {"fare_zone": "3", "line": "Northern", "name": "East Finchley", "name:ru": "\u0418\u0441\u0442-\u0424\u0438\u043d\u0447\u043b\u0438", "naptan:AtcoCode": "940GZZLUEFY", "network": "London Underground", "public_transport": "station", "railway": "station", "source_ref": "http://en.wikipedia.org/wiki/List_of_London_Underground_stations", "station": "subway", "subway": "yes", "wheelchair": "no", "wikidata": "Q1277850", "wikipedia": "en:East Finchley tube station"}}, {"type": "node", "id": 1670707949, "lat": 51.5776825, "lon": -0.1458316, "tags": {"fare_zone": "3", "layer": "-3", "line": "Northern", "name": "Highgate", "name:ru": "\u0425\u0430\u0439\u0433\u0435\u0439\u0442", "naptan:AtcoCode": "940GZZLUHGT", "network": "London Underground", "public_transport": "station", "railway": "station", "station": "subway", "subway": "yes", "wheelchair": "no", "wikidata": "Q617824", "wikipedia": "en:Highgate tube station"}}, {"type": "node", "id": 1670707975, "lat": 51.5568005, "lon": -0.138457, "tags": {"fare_zone": "2", "line": "Northern", "name": "Tufnell Park", "name:ru": "\u0422\u0430\u0444\u043d\u0435\u043b\u043b-\u043f\u0430\u0440\u043a", "naptan:AtcoCode": "940GZZLUTFP", "network": "London Underground", "operator": "London Underground", "public_transport": "station", "railway": "station", "station": "subway", "subway": "yes", "wheelchair": "no", "wikidata": "Q1780856", "wikipedia": "en:Tufnell Park tube station"}}, {"type": "node", "id": 1678368302, "lat": 51.5834006, "lon": -0.2265541, "tags": {"fare_zone": "3;4", "line": "Northern", "name": "Hendon Central", "name:ru": "\u0425\u044d\u043d\u0434\u043e\u043d-\u0441\u0435\u043d\u0442\u0440\u0430\u043b", "naptan:AtcoCode": "940GZZLUHCL", "network": "London Underground", "public_transport": "station", "railway": "station", "source_ref": "https//en.wikipedia.org/wiki/List_of_London_Underground_stations", "station": "subway", "subway": "yes", "wheelchair": "yes", "wikidata": "Q1308799", "wikipedia": "en:Hendon Central tube station"}}, {"type": "node", "id": 1687814967, "lat": 51.650399, "lon": -0.1938826, "tags": {"fare_zone": "5", "line": "Northern", "name": "High Barnet", "naptan:AtcoCode": "940GZZLUHBT", "network": "London Underground", "network:wikidata": "Q20075", "operator": "Transport for London", "operator:wikidata": "Q682520", "platforms": "2", "public_transport": "station", "railway": "station", "ref": "ZHB", "station": "subway", "subway": "yes", "wheelchair": "yes", "wheelchair:description": "Step-free access street to train", "wikidata": "Q671034", "wikipedia": "en:High Barnet tube station"}}, {"type": "node", "id": 1693158540, "lat": 51.5768177, "lon": -0.2139731, "tags": {"fare_zone": "3", "layer": "1", "line": "Northern", "name": "Brent Cross", "name:ru": "\u0411\u0440\u0435\u043d\u0442-\u041a\u0440\u043e\u0441\u0441", "naptan:AtcoCode": "940GZZLUBTX", "network": "London Underground", "public_transport": "station", "railway": "station", "source_ref": "https//en.wikipedia.org/wiki/List_of_London_Underground_stations", "station": "subway", "subway": "yes", "toilets": "no", "wheelchair": "no", "wikidata": "Q1828818", "wikipedia": "en:Brent Cross tube station"}}, {"type": "node", "id": 1736548313, "lat": 51.5421177, "lon": -0.3447996, "tags": {"description": "Greenford, Network Rail", "fare_zone": "4", "layer": "1", "level": "1", "line": "Central", "name": "Greenford", "naptan:AtcoCode": "9100GFORD", "network": "National Rail;London Underground", "network:website": "https://www.nationalrail.co.uk/stations/gfd/", "network:wikidata": "Q26334", "note": "Surrounding lines made sense of with help from http://www.roscalen.com/signals/Greenford/index.htm", "operator": "London Underground", "public_transport": "station", "railway": "station", "ref:crs": "GFD", "source": "NPE", "source_ref": "http://en.wikipedia.org/wiki/List_of_London_railway_stations;http://en.wikipedia.org/wiki/List_of_London_Underground_stations", "station": "subway", "subway": "yes", "train": "yes", "wheelchair": "limited", "wheelchair:description": "Central Line access from platform to train by manual boarding ramp.", "wikidata": "Q800841", "wikimedia_commons": "File:Greenford station eastbound look west2.jpg", "wikipedia": "en:Greenford station"}}, {"type": "node", "id": 1825273032, "lat": 51.6082746, "lon": -0.2101451, "tags": {"fare_zone": "4", "line": "Northern", "name": "Mill Hill East", "naptan:AtcoCode": "940GZZLUMHL", "network": "London Underground", "network:wikidata": "Q20075", "operator": "Transport for London", "operator:wikidata": "Q682520", "public_transport": "station", "railway": "station", "station": "subway", "subway": "yes", "wheelchair": "yes", "wheelchair:description": "Access from platform to train by manual boarding ramp.", "wikidata": "Q1670635", "wikipedia": "en:Mill Hill East tube station"}}, {"type": "node", "id": 1825273052, "lat": 51.6094298, "lon": -0.1883313, "tags": {"fare_zone": "4", "line": "Northern", "name": "West Finchley", "naptan:AtcoCode": "940GZZLUWFN", "network": "London Underground", "public_transport": "station", "railway": "station", "station": "subway", "subway": "yes", "wheelchair": "yes", "wheelchair:description": "Step-free access street to platform", "wikidata": "Q175436", "wikipedia": "en:West Finchley tube station"}}, {"type": "node", "id": 1825273066, "lat": 51.617938, "lon": -0.185523, "tags": {"fare_zone": "4", "line": "Northern", "name": "Woodside Park", "naptan:AtcoCode": "940GZZLUWOP", "network": "London Underground", "public_transport": "station", "railway": "station", "station": "subway", "subway": "yes", "wheelchair": "yes", "wheelchair:description": "Step-free access street to platform", "wikidata": "Q1974772", "wikipedia": "en:Woodside Park tube station"}}, {"type": "node", "id": 2158280269, "lat": 51.5646517, "lon": -0.3522211, "tags": {"fare_zone": "5", "line": "Piccadilly", "name": "South Harrow", "naptan:AtcoCode": "940GZZLUSHH", "network": "London Underground", "network:wikidata": "Q20075", "public_transport": "station", "railway": "station", "station": "subway", "subway": "yes", "wheelchair": "no", "wikidata": "Q946831", "wikipedia": "en:South Harrow tube station"}}, {"type": "node", "id": 2158280270, "lat": 51.550751, "lon": -0.3156202, "tags": {"fare_zone": "4", "line": "Piccadilly", "name": "Sudbury Town", "naptan:AtcoCode": "940GZZLUSUT", "network": "London Underground", "network:wikidata": "Q20075", "public_transport": "station", "railway": "station", "station": "subway", "subway": "yes", "wheelchair": "yes", "wheelchair:description": "Step-free access street to platform", "wikidata": "Q1768993", "wikipedia": "en:Sudbury Town tube station"}}, {"type": "node", "id": 2288456779, "lat": 51.5568815, "lon": -0.3362525, "tags": {"fare_zone": "4", "line": "Piccadilly", "name": "Sudbury Hill", "naptan:AtcoCode": "940GZZLUSUH", "network": "London Underground", "network:wikidata": "Q20075", "public_transport": "station", "railway": "station", "station": "subway", "subway": "yes", "wheelchair": "yes", "wheelchair:description": "Access from platform to train by manual boarding ramp.", "wikidata": "Q2121603", "wikipedia": "en:Sudbury Hill tube station"}}, {"type": "node", "id": 2314512860, "lat": 51.5201935, "lon": -0.1667636, "tags": {"fare_zone": "1", "line": "Circle;District;Hammersmith & City", "name": "Edgware Road (Circle, District and Hammersmith & City lines)", "name:ru": "\u042d\u0434\u0436\u0432\u0435\u0440-\u0440\u043e\u0443\u0434", "naptan:AtcoCode": "940GZZLUERC", "network": "London Underground", "operator": "Transport for London", "platforms": "4", "public_transport": "station", "railway": "station", "station": "subway", "subway": "yes", "wheelchair": "no", "wikidata": "Q1284426", "wikipedia": "en:Edgware Road tube station (Circle, District and Hammersmith & City lines)"}}, {"type": "node", "id": 2426825788, "lat": 51.5199127, "lon": -0.0597889, "tags": {"fare_zone": "2", "line": "District;Hammersmith & City;Windrush", "name": "Whitechapel", "name:bn": "\u09b9\u09cb\u09af\u09bc\u09be\u0987\u099f\u099a\u09c7\u09aa\u09c7\u09b2", "name:ru": "\u0423\u0430\u0439\u0442\u0447\u0435\u043f\u0435\u043b", "naptan:AtcoCode": "9100WCHAPEL", "network": "London Underground;London Overground;Elizabeth line", "network:subway": "London Underground", "network:train": "London Overground", "network:website": "https://www.nationalrail.co.uk/stations/zlw/", "network:wikidata:Elizabeth line": "Q111297173", "network:wikidata:National_Rail:": "Q26334", "operator": "London Underground", "public_transport": "station", "public_transport:version": "2", "railway": "station", "ref:crs": "ZLW", "source_ref": "http://en.wikipedia.org/wiki/London_Overground#Stations", "station": "subway", "subway": "yes", "train": "yes", "wheelchair": "yes", "wheelchair:description": "Access from platform to train by manual boarding ramp.", "wikidata": "Q605723", "wikipedia": "en:Whitechapel station"}}, {"type": "node", "id": 3076573910, "lat": 51.5201501, "lon": -0.0986832, "tags": {"fare_zone": "1", "line": "Metropolitan;Circle;Hammersmith & City", "name": "Barbican", "name:ru": "\u0411\u0430\u0440\u0431\u0430\u043a\u0430\u043d", "naptan:AtcoCode": "940GZZLUBBN", "network": "London Underground", "old_name": "Aldersgate", "operator": "London Underground", "platforms": "2", "public_transport": "station", "railway": "station", "ref": "ZBB", "start_date": "1865-12-23", "station": "subway", "subway": "yes", "wheelchair": "no", "wikidata": "Q38876", "wikimedia_commons": "Category:Barbican tube station", "wikipedia": "en:Barbican tube station"}}, {"type": "node", "id": 3076573911, "lat": 51.5858181, "lon": 0.0886245, "tags": {"fare_zone": "4", "line": "Central", "name": "Barkingside", "naptan:AtcoCode": "940GZZLUBKE", "network": "London Underground", "network:wikidata": "Q20075", "operator": "London Underground", "operator:wikidata": "Q20075", "platforms": "2", "public_transport": "station", "railway": "station", "source_ref": "http://en.wikipedia.org/wiki/List_of_London_Underground_stations", "start_date": "1948-05-31", "station": "subway", "subway": "yes", "wheelchair": "limited", "wheelchair:description": "You can only enter and exit the eastbound platform. Access from platform to train by manual boarding ramp.", "wikidata": "Q808290", "wikimedia_commons": "Category:Barkingside tube station", "wikipedia": "en:Barkingside tube station"}}, {"type": "node", "id": 3076573913, "lat": 51.5139808, "lon": -0.1494231, "tags": {"fare_zone": "1", "line": "Central;Jubilee", "name": "Bond Street", "name:ru": "\u0411\u043e\u043d\u0434-\u0441\u0442\u0440\u0438\u0442", "naptan:AtcoCode": "940GZZLUBND", "network": "London Underground", "operator": "London Underground", "platforms": "4", "public_transport": "station", "railway": "station", "start_date": "1900-09-24", "station": "subway", "subway": "yes", "wheelchair": "yes", "wikidata": "Q892189", "wikimedia_commons": "Category:Bond Street tube station", "wikipedia": "en:Bond Street station"}}, {"type": "node", "id": 3076573915, "lat": 51.5181738, "lon": -0.1117642, "tags": {"fare_zone": "1", "line": "Central", "name": "Chancery Lane", "name:ru": "\u0427\u0430\u043d\u0441\u0435\u0440\u0438-\u043b\u0435\u0439\u043d", "naptan:AtcoCode": "940GZZLUCHL", "network": "London Underground", "operator": "London Underground", "platforms": "2", "public_transport": "station", "railway": "station", "source_ref": "http://en.wikipedia.org/wiki/List_of_London_Underground_stations", "station": "subway", "subway": "yes", "wheelchair": "no", "wikidata": "Q1061682", "wikimedia_commons": "Category:Chancery Lane tube station", "wikipedia": "en:Chancery Lane tube station"}}, {"type": "node", "id": 3076573924, "lat": 51.5959477, "lon": 0.0911302, "tags": {"fare_zone": "4", "line": "Central", "name": "Fairlop", "naptan:AtcoCode": "940GZZLUFLP", "network": "London Underground", "network:wikidata": "Q20075", "operator": "London Underground", "operator:wikidata": "Q20075", "platforms": "2", "public_transport": "station", "railway": "station", "source_ref": "http://en.wikipedia.org/wiki/List_of_London_Underground_stations", "start_date": "1948-05-31", "station": "subway", "subway": "yes", "wheelchair": "no", "wikidata": "Q1393332", "wikimedia_commons": "Category:Fairlop tube station", "wikipedia": "en:Fairlop tube station"}}, {"type": "node", "id": 3076573925, "lat": 51.576525, "lon": 0.0648799, "tags": {"fare_zone": "4", "line": "Central", "name": "Gants Hill", "naptan:AtcoCode": "940GZZLUGTH", "network": "London Underground", "network:wikidata": "Q20075", "operator": "London Underground", "operator:wikidata": "Q20075", "platforms": "2", "public_transport": "station", "railway": "station", "source_ref": "http://en.wikipedia.org/wiki/List_of_London_Underground_stations", "start_date": "1947-12-14", "station": "subway", "subway": "yes", "wheelchair": "no", "wikidata": "Q1493698", "wikimedia_commons": "Category:Gants Hill tube station", "wikipedia": "en:Gants Hill tube station"}}, {"type": "node", "id": 3076573927, "lat": 51.6033138, "lon": 0.0933827, "tags": {"fare_zone": "4", "line": "Central", "name": "Hainault", "naptan:AtcoCode": "940GZZLUHLT", "network": "London Underground", "network:wikidata": "Q20075", "operator": "London Underground", "operator:wikidata": "Q20075", "platforms": "2", "public_transport": "station", "railway": "station", "source_ref": "http://en.wikipedia.org/wiki/List_of_London_Underground_stations", "start_date": "1948-05-31", "station": "subway", "subway": "yes", "toilets": "no", "wheelchair": "yes", "wikidata": "Q1569388", "wikimedia_commons": "Category:Hainault tube station", "wikipedia": "en:Hainault tube station"}}, {"type": "node", "id": 3076574236, "lat": 51.5253378, "lon": -0.033435, "tags": {"fare_zone": "2", "line": "Central;District;Hammersmith & City", "name": "Mile End", "name:ru": "\u041c\u0430\u0439\u043b-\u042d\u043d\u0434", "naptan:AtcoCode": "940GZZLUMED", "network": "London Underground", "operator": "London Underground", "platforms": "4", "public_transport": "station", "public_transport:version": "2", "railway": "station", "source_ref": "http://en.wikipedia.org/wiki/List_of_London_Underground_stations", "start_date": "1902-06-02", "station": "subway", "subway": "yes", "wheelchair": "limited", "wheelchair:description": "You can change between eastbound Central line, District line and the Hammersmith & City lines. You can change between westbound Central line, District line and the Hammersmith & City line. Access from platform to train by manual boarding ramp.", "wikidata": "Q784876", "wikimedia_commons": "Category:Mile End tube station", "wikipedia": "en:Mile End tube station"}}, {"type": "node", "id": 3076574237, "lat": 51.5106328, "lon": -0.0861271, "tags": {"fare_zone": "1", "line": "District;Circle", "name": "Monument", "name:ru": "\u041c\u043e\u043d\u0443\u043c\u0435\u043d\u0442", "naptan:AtcoCode": "940GZZLUMMT", "network": "London Underground", "operator": "Transport for London", "platforms": "2", "public_transport": "station", "railway": "station", "source:name": "local knowledge", "start_date": "1884-10-06", "station": "subway", "subway": "yes", "wheelchair": "no", "wikidata": "Q806704", "wikimedia_commons": "Category:Bank and Monument stations", "wikipedia": "en:Bank and Monument stations"}}, {"type": "node", "id": 3284103165, "lat": 51.519964, "lon": -0.104555, "tags": {"addr:city": "London", "addr:postcode": "EC1M 6BY", "addr:street": "Cowcross Street", "fare_zone": "1", "line": "Metropolitan;Circle;Hammersmith & City;Elizabeth line;Thameslink", "name": "Farringdon", "naptan:AtcoCode": "9400ZZLUFCN", "network": "National Rail;London Underground;Elizabeth line", "network:website": "https://www.nationalrail.co.uk/stations/farringdon/", "network:wikidata": "Q26334", "operator": "London Underground", "public_transport": "station", "railway": "station", "ref:crs": "ZFD", "source:ref": "http://wiki.kyiv.cogniance.com/display/CM/Absent+stations", "station": "subway", "subway": "yes", "train": "yes", "wheelchair": "yes", "wikidata": "Q800754", "wikimedia_commons": "Category:Farringdon_station", "wikipedia": "en:Farringdon station"}}, {"type": "node", "id": 3370671078, "lat": 51.5114642, "lon": -0.1282641, "tags": {"fare_zone": "1", "line": "Piccadilly;Northern", "name": "Leicester Square", "name:ru": "\u041b\u0435\u0441\u0442\u0435\u0440-\u0441\u043a\u0432\u0435\u0440", "naptan:AtcoCode": "940GZZLULSQ", "network": "London Underground", "network:wikidata": "Q20075", "operator": "Transport for London", "operator:wikidata": "Q682520", "public_transport": "station", "railway": "station", "station": "subway", "subway": "yes", "wheelchair": "no", "wikidata": "Q2538959", "wikipedia": "en:Leicester Square tube station"}}, {"type": "node", "id": 3637436407, "lat": 51.5176777, "lon": -0.0825205, "tags": {"fare_zone": "1", "internet_access": "yes", "line": "Central", "name": "Liverpool Street", "naptan:AtcoCode": "9400ZZLULVT", "network": "London Underground", "operator": "London Underground", "public_transport": "station", "public_transport:version": "2", "railway": "station", "station": "subway", "subway": "yes", "train": "yes", "wheelchair": "yes", "wikidata": "Q801124", "wikipedia": "en:Liverpool_Street_station#Underground_station"}}, {"type": "node", "id": 3637449659, "lat": 51.5113812, "lon": -0.0903632, "tags": {"fare_zone": "1", "line": "Circle;District", "name": "Cannon Street", "naptan:AtcoCode": "910GCANONST", "network": "London Underground", "operator": "London Underground", "public_transport": "station", "public_transport:version": "2", "railway": "station", "station": "subway", "subway": "yes", "wheelchair": "limited", "wheelchair:description": "You can only enter and exit the westbound platform. Access from platform to train by manual boarding ramp.", "wikidata": "Q800615", "wikipedia": "en:Cannon Street station#London Underground"}}, {"type": "node", "id": 3638779316, "lat": 51.5098192, "lon": -0.1345484, "tags": {"fare_zone": "1", "line": "Piccadilly;Bakerloo", "name": "Piccadilly Circus", "name:et": "Piccadilly Circuse metroojaam", "name:ru": "\u041f\u0438\u043a\u0430\u0434\u0438\u043b\u043b\u0438-\u0441\u0451\u0440\u043a\u0443\u0441", "name:zh": "\u76ae\u5361\u8fea\u5229\u5713\u74b0\u7ad9", "name:zh-Hant": "\u76ae\u5361\u8fea\u5229\u5713\u74b0\u7ad9", "naptan:AtcoCode": "940GZZLUPCC", "network": "London Underground", "public_transport": "station", "railway": "station", "ref": "ZPC", "station": "subway", "subway": "yes", "wheelchair": "no", "wikidata": "Q26448", "wikipedia": "en:Piccadilly Circus tube station"}}, {"type": "node", "id": 3638795618, "lat": 51.5030015, "lon": -0.1139812, "tags": {"fare_zone": "1", "line": "Jubilee;Northern;Bakerloo;Waterloo & City", "name": "Waterloo", "naptan:AtcoCode": "940GZZLUWLO", "network": "London Underground", "network:wikidata": "Q20075", "operator": "London Underground", "public_transport": "station", "railway": "station", "ref": "ZWA", "station": "subway", "subway": "yes", "wheelchair": "yes", "wikidata": "Q10319641", "wikipedia": "en:Waterloo tube station"}}, {"type": "node", "id": 3660442172, "lat": 51.5079664, "lon": -0.1263945, "tags": {"fare_zone": "1", "line": "Bakerloo;Northern", "name": "Charing Cross", "naptan:AtcoCode": "940GZZLUCHX", "network": "London Underground", "operator": "London Underground", "public_transport": "station", "railway": "station", "station": "subway", "subway": "yes", "wheelchair": "no", "wikidata": "Q795322", "wikipedia": "en:Charing Cross tube station"}}, {"type": "node", "id": 3660623413, "lat": 51.4948884, "lon": -0.1005731, "tags": {"fare_zone": "1;2", "line": "Bakerloo;Northern", "name": "Elephant & Castle", "name:ru": "\u042d\u043b\u0435\u0444\u0430\u043d\u0442-\u044d\u043d\u0434-\u041a\u0430\u0441\u043b", "naptan:AtcoCode": "940GZZLUEAC", "network": "London Underground", "network:wikidata": "Q20075", "operator": "London Underground", "public_transport": "station", "railway": "station", "ref": "ZEL", "station": "subway", "subway": "yes", "wheelchair": "no", "wikidata": "Q1481451", "wikipedia": "en:Elephant & Castle tube station"}}, {"type": "node", "id": 3663368461, "lat": 51.5282865, "lon": -0.1338745, "tags": {"addr:city": "London", "addr:postcode": "NW1 2DU", "addr:street": "Eversholt Street", "fare_zone": "1", "line": "Northern;Victoria", "name": "Euston", "naptan:AtcoCode": "910GEUSTON", "network": "London Underground", "network:website": "https://www.nationalrail.co.uk/stations/eus/", "network:wikidata": "Q20075", "operator": "Transport for London", "operator:wikidata": "Q682520", "platforms": "6", "public_transport": "station", "railway": "station", "station": "subway", "subway": "yes", "train": "yes", "wheelchair": "limited", "wheelchair:description": "You can change between the Victoria line southbound and the Northern line southbound via London Bridge. You can also change between the Victoria line northbound and the Northern line northbound.", "wikidata": "Q1378779", "wikipedia": "en:Euston tube station"}}, {"type": "node", "id": 3693265703, "lat": 51.5171149, "lon": -0.1200657, "tags": {"fare_zone": "1", "line": "Central;Piccadilly", "name": "Holborn", "name:ru": "\u0425\u043e\u043b\u0431\u043e\u0440\u043d", "naptan:AtcoCode": "940GZZLUHBN", "network": "London Underground", "operator": "London Underground", "public_transport": "station", "railway": "station", "station": "subway", "subway": "yes", "wheelchair": "no", "wikidata": "Q1433544", "wikipedia": "en:Holborn tube station"}}, {"type": "node", "id": 3748134854, "lat": 51.4340563, "lon": -0.1990432, "tags": {"fare_zone": "3", "line": "District", "name": "Wimbledon Park", "name:ru": "\u0423\u0438\u043c\u0431\u043b\u0434\u043e\u043d-\u043f\u0430\u0440\u043a", "naptan:AtcoCode": "940GZZLUWIP", "network": "London Underground", "network:wikidata": "Q20075", "not:network:wikidata": "Q111297173", "operator": "Transport for London", "public_transport": "station", "railway": "station", "source_ref": "https//en.wikipedia.org/wiki/List_of_London_Underground_stations", "station": "subway", "subway": "yes", "wheelchair": "yes", "wheelchair:description": "Access from platform to train by manual boarding ramp.", "wikidata": "Q1974778", "wikipedia": "en:Wimbledon Park tube station"}}, {"type": "node", "id": 3749079080, "lat": 51.4941293, "lon": -0.2357932, "tags": {"fare_zone": "2", "line": "District", "name": "Ravenscourt Park", "name:ru": "\u0420\u044d\u0439\u0432\u0435\u043d\u0441\u043a\u043e\u0440\u0442-\u043f\u0430\u0440\u043a", "naptan:AtcoCode": "940GZZLURVP", "network": "London Underground", "public_transport": "station", "railway": "station", "source": "NPE", "station": "subway", "subway": "yes", "wheelchair": "no", "wikidata": "Q768560", "wikipedia": "en:Ravenscourt Park tube station"}}, {"type": "node", "id": 3763522921, "lat": 51.5115854, "lon": -0.1037671, "tags": {"fare_zone": "1", "line": "Circle;District", "name": "Blackfriars", "name:ru": "\u0411\u043b\u044d\u043a\u0444\u0440\u0430\u0435\u0440\u0441", "naptan:AtcoCode": "940GZZLUBKF", "network": "London Underground", "network:website": "https://www.nationalrail.co.uk/stations/bfr/", "network:wikidata": "Q26334", "public_transport": "station", "railway": "station", "source_ref": "http://en.wikipedia.org/wiki/List_of_London_Underground_stations", "station": "subway", "subway": "yes", "wheelchair": "yes", "wheelchair:description": "Lift to platform, step-free onto trains (Only Eastbound checked and photos today)", "wikidata": "Q284195", "wikimedia_commons": "Category:Blackfriars_station", "wikipedia": "en:Blackfriars station"}}, {"type": "node", "id": 3773122118, "lat": 51.4989328, "lon": -0.1120142, "tags": {"fare_zone": "1", "line": "Bakerloo", "name": "Lambeth North", "name:ru": "\u041b\u0430\u043c\u0431\u0435\u0442-\u043d\u043e\u0440\u0442", "naptan:AtcoCode": "9400ZZLULBN", "network": "London Underground", "network:wikidata": "Q20075", "public_transport": "station", "railway": "station", "source_ref": "http://en.wikipedia.org/wiki/List_of_London_Underground_stations#cite_note-usage-6", "station": "subway", "subway": "yes", "wheelchair": "no", "wikidata": "Q1549587", "wikipedia": "en:Lambeth North tube station"}}, {"type": "node", "id": 3788735981, "lat": 51.5142477, "lon": -0.0757186, "tags": {"fare_zone": "1", "line": "Metropolitan", "name": "Aldgate", "name:da": "Aldgate Station", "name:ru": "\u041e\u043b\u0434\u0433\u0435\u0439\u0442", "naptan:AtcoCode": "940GZZLUALD", "network": "London Underground", "operator": "Transport for London", "platforms": "4", "public_transport": "station", "public_transport:version": "2", "railway": "station", "ref": "ZAD", "station": "subway", "subway": "yes", "wheelchair": "no", "wikidata": "Q782929", "wikimedia_commons": "Category:Aldgate tube station", "wikipedia": "en:Aldgate tube station"}}, {"type": "node", "id": 3803245041, "lat": 51.5824738, "lon": -0.0749325, "tags": {"fare_zone": "3", "line": "Victoria", "name": "Seven Sisters", "naptan:AtcoCode": "9100SEVNSIS", "network": "National Rail;London Underground;London Overground", "network:website": "https://www.nationalrail.co.uk/stations/svs/", "network:wikidata": "Q26334", "operator": "London Overground;London Underground", "platforms": "5", "public_transport": "station", "railway": "station", "ref:crs": "SVS", "source:network": "Sign", "station": "subway", "subway": "yes", "train": "yes", "wheelchair": "no", "wikidata": "Q801433", "wikipedia": "en:Seven Sisters station"}}, {"type": "node", "id": 3808897466, "lat": 51.4457751, "lon": -0.2066142, "tags": {"fare_zone": "3", "line": "District", "name": "Southfields", "name:ru": "\u0421\u0430\u0443\u0442\u0444\u0438\u043b\u0434\u0441", "naptan:AtcoCode": "940GZZLUSFS", "network": "London Underground", "network:wikidata": "Q20075", "not:network:wikidata": "Q111297173", "operator": "Transport for London", "operator:wikidata": "Q682520", "public_transport": "station", "railway": "station", "station": "subway", "subway": "yes", "wheelchair": "yes", "wikidata": "Q1974786", "wikipedia": "en:Southfields tube station"}}, {"type": "node", "id": 3817850257, "lat": 51.4860091, "lon": -0.1248604, "tags": {"fare_zone": "1;2", "line": "Victoria", "name": "Vauxhall", "name:ru": "\u0412\u043e\u043a\u0441\u0445\u043e\u043b\u043b", "naptan:AtcoCode": "940GZZLUVXL", "network": "London Underground", "network:wikidata": "Q20075", "operator": "Transport for London", "platforms": "2", "public_transport": "station", "railway": "station", "station": "subway", "subway": "yes", "wheelchair": "yes", "wikidata": "Q664375", "wikimedia_commons": "Category:Vauxhall tube station", "wikipedia": "en:Vauxhall station"}}, {"type": "node", "id": 3956577242, "lat": 51.5008623, "lon": -0.3076815, "tags": {"fare_zone": "3", "line": "Piccadilly", "name": "South Ealing", "naptan:AtcoCode": "940GZZLUSEA", "network": "London Underground", "network:wikidata": "Q20075", "public_transport": "station", "railway": "station", "station": "subway", "subway": "yes", "wheelchair": "no", "wikidata": "Q2304475", "wikipedia": "en:South Ealing tube station"}}, {"type": "node", "id": 4451063672, "lat": 51.5351062, "lon": 0.0339842, "tags": {"addr:city": "London", "addr:postcode": "E13 9AP", "addr:street": "Green Street", "fare_zone": "3", "internet_access": "wlan", "internet_access:fee": "no", "internet_access:ssid": "Virgin Media WiFi", "line": "District;Hammersmith & City", "name": "Upton Park", "naptan:AtcoCode": "940GZZLUUPK", "network": "London Underground", "network:wikidata": "Q20075", "operator": "Transport for London", "public_transport": "station", "public_transport:version": "2", "railway": "station", "station": "subway", "subway": "yes", "wheelchair": "no", "wikidata": "Q1649850", "wikipedia": "en:Upton Park tube station"}}, {"type": "node", "id": 4503057074, "lat": 51.4620748, "lon": -0.1373589, "tags": {"fare_zone": "2", "line": "Northern", "name": "Clapham Common", "name:ru": "\u041a\u043b\u044d\u043f\u0445\u0435\u043c-\u041a\u043e\u043c\u043c\u043e\u043d", "naptan:AtcoCode": "940GZZLUCPC", "network": "London Underground", "network:wikidata": "Q20075", "not:network:wikidata": "Q746021", "public_transport": "station", "railway": "station", "station": "subway", "subway": "yes", "wheelchair": "no", "wikidata": "Q1095075", "wikipedia": "en:Clapham Common tube station"}}, {"type": "node", "id": 4514968602, "lat": 51.5119347, "lon": -0.2242361, "tags": {"fare_zone": "2", "line": "Central", "name": "White City", "naptan:AtcoCode": "940GZZLUWCY", "network": "London Underground", "platforms": "3", "public_transport": "station", "railway": "station", "station": "subway", "subway": "yes", "wheelchair": "no", "wikidata": "Q2120048", "wikipedia": "en:White City tube station"}}, {"type": "node", "id": 4635572117, "lat": 51.5185075, "lon": -0.1787546, "tags": {"fare_zone": "1", "line": "Circle;Hammersmith & City", "name": "Paddington (Circle and Hammersmith & City lines)", "naptan:AtcoCode": "940GZZLUPAH", "network": "London Underground", "public_transport": "station", "railway": "station", "station": "subway", "subway": "yes", "wheelchair": "yes", "wikidata": "Q214788", "wikipedia": "en:London Paddington station"}}, {"type": "node", "id": 4860750355, "lat": 51.5917798, "lon": 0.0274276, "tags": {"fare_zone": "4", "line": "Central", "name": "South Woodford", "naptan:AtcoCode": "940GZZLUSWF", "network": "London Underground", "network:wikidata": "Q20075", "public_transport": "station", "railway": "station", "source_ref": "http://en.wikipedia.org/wiki/List_of_London_Underground_stations", "station": "subway", "subway": "yes", "wheelchair": "limited", "wheelchair:description": "Step-free platform interchange requires a 125m journey via street. Use the George Lane (West) entrance for westbound platform. Use the Station Passage (East) entrance for eastbound platform. Access from platform to train by manual boarding ramp.", "wikidata": "Q2120068", "wikipedia": "en:South Woodford tube station"}}, {"type": "node", "id": 4866262553, "lat": 51.5695047, "lon": -0.4370447, "tags": {"fare_zone": "6", "internet_access": "wlan", "line": "Central", "name": "West Ruislip", "naptan:AtcoCode": "9100WRUISLP", "network": "National Rail;London Underground", "network:subway": "London Underground", "network:train": "National Rail", "network:website": "https://www.nationalrail.co.uk/stations/wru/", "network:wikidata": "Q26334", "operator": "London Underground", "public_transport": "station", "railway": "station", "ref:crs": "WRU", "source": "NPE, and wikipedia description for which goes on which side", "source_ref": "http://en.wikipedia.org/wiki/List_of_London_railway_stations;http://en.wikipedia.org/wiki/List_of_London_Underground_stations", "station": "subway", "subway": "yes", "train": "yes", "wheelchair": "no", "wikidata": "Q801602", "wikipedia": "en:West Ruislip station"}}, {"type": "node", "id": 4984999298, "lat": 51.5156185, "lon": -0.070839, "tags": {"fare_zone": "1", "line": "District;Hammersmith & City", "name": "Aldgate East", "name:ru": "\u0410\u043b\u044c\u0434\u0433\u0435\u0439\u0442-\u0438\u0441\u0442", "network": "London Underground", "public_transport": "station", "public_transport:version": "2", "railway": "station", "ref": "ZAE", "station": "subway", "subway": "yes", "wheelchair": "limited", "wheelchair:description": "You can change between the District line westbound and the Hammersmith & City line westbound (Access from platform to train by manual boarding ramp). You can change between the District line eastbound and the Hammersmith & City line eastbound.", "wikidata": "Q1431064", "wikipedia": "en:Aldgate East tube station"}}, {"type": "node", "id": 5107248193, "lat": 51.4750837, "lon": -0.201549, "tags": {"fare_zone": "2", "line": "District", "name": "Parsons Green", "name:ru": "\u041f\u0430\u0440\u0441\u043e\u043d\u0441-\u0433\u0440\u0438\u043d", "naptan:AtcoCode": "940GZZLUPSG", "network": "London Underground", "network:wikidata": "Q20075", "operator": "Transport for London", "public_transport": "station", "railway": "station", "source_ref": "http://en.wikipedia.org/wiki/List_of_London_Underground_stations", "start_date": "1880-03-01", "station": "subway", "subway": "yes", "wheelchair": "no", "wikidata": "Q1457814", "wikipedia": "en:Parsons Green tube station"}}, {"type": "node", "id": 5142610270, "lat": 51.4808834, "lon": -0.1943493, "tags": {"alt_name:ru": "\u0424\u0443\u043b\u0445\u044d\u043c-\u0431\u0440\u043e\u0434\u0432\u0435\u0439", "fare_zone": "2", "line": "District", "name": "Fulham Broadway", "name:ru": "\u0424\u0443\u043b\u0435\u043c-\u0431\u0440\u043e\u0434\u0432\u0435\u0439", "naptan:AtcoCode": "940GZZLUFBY", "network": "London Underground", "network:wikidata": "Q20075", "public_transport": "station", "railway": "station", "source_ref": "http://en.wikipedia.org/wiki/List_of_London_Underground_stations", "station": "subway", "subway": "yes", "wheelchair": "yes", "wikidata": "Q1473616", "wikipedia": "en:Fulham Broadway tube station"}}, {"type": "node", "id": 5178413114, "lat": 51.5311544, "lon": 0.0166833, "tags": {"fare_zone": "3", "line": "District;Hammersmith & City", "name": "Plaistow", "naptan:AtcoCode": "940GZZLUPLW", "network": "London Underground", "network:wikidata": "Q20075", "operator": "London Underground", "operator:wikidata": "Q20075", "platforms": "3", "public_transport": "station", "public_transport:version": "2", "railway": "station", "ref": "ZPS", "source_ref": "https//en.wikipedia.org/wiki/List_of_London_Underground_stations", "station": "subway", "subway": "yes", "wheelchair": "no", "wikidata": "Q1326180", "wikipedia": "en:Plaistow tube station"}}, {"type": "node", "id": 5178413115, "lat": 51.5268535, "lon": -0.024789, "tags": {"fare_zone": "2", "line": "District;Hammersmith & City", "name": "Bow Road", "name:ru": "\u0411\u043e\u0443-\u0440\u043e\u0443\u0434", "naptan:AtcoCode": "940GZZLUBWR", "network": "London Underground", "public_transport": "station", "public_transport:version": "2", "railway": "station", "source_ref": "https//en.wikipedia.org/wiki/List_of_London_Underground_stations", "station": "subway", "subway": "yes", "wheelchair": "no", "wikidata": "Q895388", "wikipedia": "en:Bow Road tube station"}}, {"type": "node", "id": 5178413116, "lat": 51.5217026, "lon": -0.0467147, "tags": {"fare_zone": "2", "line": "District;Hammersmith & City", "name": "Stepney Green", "name:ru": "\u0421\u0442\u0435\u043f\u043d\u0438-\u0433\u0440\u0438\u043d", "naptan:AtcoCode": "940GZZLUSGN", "network": "London Underground", "public_transport": "station", "public_transport:version": "2", "railway": "station", "source_ref": "http://en.wikipedia.org/wiki/List_of_London_Underground_stations", "station": "subway", "subway": "yes", "wheelchair": "no", "wikidata": "Q1891699", "wikipedia": "en:Stepney Green tube station"}}, {"type": "node", "id": 5182384967, "lat": 51.6473302, "lon": -0.1312548, "tags": {"fare_zone": "5", "line": "Piccadilly", "name": "Oakwood", "naptan:AtcoCode": "910GENFCOAK;940GZZLUOAK", "network": "London Underground", "operator": "London Underground", "public_transport": "station", "railway": "station", "ref": "ZOA", "station": "subway", "subway": "yes", "wheelchair": "yes", "wikidata": "Q1857872", "wikipedia": "en:Oakwood tube station"}}, {"type": "node", "id": 5182384968, "lat": 51.4907023, "lon": -0.2059442, "tags": {"fare_zone": "2", "line": "District", "name": "West Kensington", "name:ru": "\u0412\u0435\u0441\u0442-\u041a\u0435\u043d\u0441\u0438\u043d\u0433\u0442\u043e\u043d", "naptan:AtcoCode": "940GZZLUWKN", "network": "London Underground", "network:wikidata": "Q20075", "public_transport": "station", "railway": "station", "source": "GPX", "station": "subway", "subway": "yes", "wheelchair": "no", "wikidata": "Q944664", "wikipedia": "en:West Kensington tube station"}}, {"type": "node", "id": 5182384969, "lat": 51.4869765, "lon": -0.1951854, "tags": {"fare_zone": "2", "line": "District", "name": "West Brompton", "naptan:AtcoCode": "9100WBRMPTN", "network": "London Underground;London Overground", "network:website": "https://www.nationalrail.co.uk/stations/wbp/", "network:wikidata": "Q26334", "public_transport": "station", "railway": "station", "ref:crs": "WBP", "source_ref": "https//en.wikipedia.org/wiki/List_of_London_Underground_stations", "station": "subway", "subway": "yes", "train": "yes", "wheelchair": "limited", "wheelchair:description": "District line step-free eastbound only", "wikidata": "Q801595", "wikipedia": "en:West Brompton station"}}, {"type": "node", "id": 5182384970, "lat": 51.4953386, "lon": -0.3254399, "tags": {"fare_zone": "4", "line": "Piccadilly", "name": "Boston Manor", "naptan:AtcoCode": "940GZZLUBOS", "network": "London Underground", "network:wikidata": "Q20075", "public_transport": "station", "railway": "station", "ref": "ZBM", "source_ref": "https//en.wikipedia.org/wiki/List_of_London_Underground_stations", "station": "subway", "subway": "yes", "wheelchair": "no", "wikidata": "Q894569", "wikipedia": "en:Boston Manor tube station"}}, {"type": "node", "id": 5182384971, "lat": 51.4713416, "lon": -0.452483, "tags": {"fare_zone": "6", "line": "Piccadilly", "name": "Heathrow Terminals 2 & 3", "naptan:AtcoCode": "9400ZZLUHRC", "network": "London Underground", "network:wikidata": "Q20075", "old_name": "Heathrow Terminals 1, 2 & 3", "operator": "London Underground", "public_transport": "station", "railway": "station", "ref": "ZHJ", "source_ref": "https://en.wikipedia.org/wiki/List_of_London_railway_stations", "station": "subway", "subway": "yes", "wheelchair": "yes", "wikidata": "Q763293", "wikipedia": "en:Heathrow Terminals 2 & 3 tube station"}}, {"type": "node", "id": 5182384972, "lat": 51.472515, "lon": -0.4877331, "tags": {"fare_zone": "6", "line": "Piccadilly", "name": "Heathrow Terminal 5", "network": "London Underground", "network:website": "https://www.nationalrail.co.uk/stations/hwv/", "network:wikidata": "Q20075", "operator": "Heathrow Airport Holdings", "public_transport": "station", "railway": "station", "station": "subway", "subway": "yes", "wheelchair": "yes", "wheelchair:description": "Step-free access street to train", "wikidata": "Q800907", "wikipedia": "en:Heathrow Terminal 5 station"}}, {"type": "node", "id": 5182384973, "lat": 51.5015961, "lon": -0.160937, "tags": {"fare_zone": "1", "line": "Piccadilly", "name": "Knightsbridge", "name:ru": "\u041d\u0430\u0439\u0442\u0441\u0431\u0440\u0438\u0434\u0436", "naptan:AtcoCode": "940GZZLUKNB", "network": "London Underground", "public_transport": "station", "railway": "station", "source_ref": "http://en.wikipedia.org/wiki/List_of_London_Underground_stations#cite_note-usage-6", "station": "subway", "subway": "yes", "wheelchair": "no", "wikidata": "Q1757120", "wikipedia": "en:Knightsbridge tube station"}}, {"type": "node", "id": 5182384974, "lat": 51.4735822, "lon": -0.3858181, "tags": {"fare_zone": "5", "line": "Piccadilly", "name": "Hounslow West", "naptan:AtcoCode": "940GZZLUHWT", "network": "London Underground", "network:wikidata": "Q20075", "public_transport": "station", "railway": "station", "station": "subway", "subway": "yes", "wheelchair": "no", "wheelchair:description": "Step-free access street to train", "wikidata": "Q978377", "wikipedia": "en:Hounslow West tube station"}}, {"type": "node", "id": 5182424563, "lat": 51.5340608, "lon": -0.1380918, "tags": {"fare_zone": "2", "line": "Northern", "name": "Mornington Crescent", "naptan:AtcoCode": "940GZZLUMTC", "network": "London Underground", "public_transport": "station", "railway": "station", "station": "subway", "subway": "yes", "wheelchair": "no", "wikidata": "Q1890387", "wikipedia": "en:Mornington Crescent tube station"}}, {"type": "node", "id": 5182424564, "lat": 51.4734727, "lon": -0.3558944, "tags": {"fare_zone": "4", "line": "Piccadilly", "name": "Hounslow East", "naptan:AtcoCode": "940GZZLUHWE", "network": "London Underground", "network:wikidata": "Q20075", "public_transport": "station", "railway": "station", "source_ref": "https//en.wikipedia.org/wiki/List_of_London_Underground_stations", "station": "subway", "subway": "yes", "wheelchair": "yes", "wheelchair:description": "Step-free access street to platform", "wikidata": "Q1631346", "wikipedia": "en:Hounslow East tube station"}}, {"type": "node", "id": 5182424565, "lat": 51.471307, "lon": -0.3662332, "tags": {"fare_zone": "4", "line": "Piccadilly", "name": "Hounslow Central", "naptan:AtcoCode": "940GZZLUHWC", "network": "London Underground", "network:wikidata": "Q20075", "public_transport": "station", "railway": "station", "station": "subway", "subway": "yes", "wheelchair": "no", "wikidata": "Q1439481", "wikipedia": "en:Hounslow Central tube station"}}, {"type": "node", "id": 5182424566, "lat": 51.6323183, "lon": -0.1277858, "tags": {"check_date:wheelchair": "2025-01-29", "fare_zone": "4", "line": "Piccadilly", "name": "Southgate", "naptan:AtcoCode": "940GZZLUSGT", "network": "London Underground", "operator": "London Underground", "public_transport": "station", "railway": "station", "station": "subway", "subway": "yes", "wheelchair": "no", "wikidata": "Q286666", "wikipedia": "en:Southgate tube station"}}, {"type": "node", "id": 5182424567, "lat": 51.651366, "lon": -0.1485149, "tags": {"fare_zone": "5", "line": "Piccadilly", "name": "Cockfosters", "naptan:AtcoCode": "940GZZLUCKS", "network": "London Underground", "operator": "London Underground", "public_transport": "station", "railway": "station", "ref": "ZCK", "source_ref": "https//en.wikipedia.org/wiki/List_of_London_Underground_stations", "station": "subway", "subway": "yes", "wheelchair": "yes", "wheelchair:description": "Access from platform to train by manual boarding ramp", "wikidata": "Q1105305", "wikipedia": "en:Cockfosters tube station"}}, {"type": "node", "id": 5182424568, "lat": 51.6028082, "lon": -0.2640125, "tags": {"fare_zone": "4", "line": "Northern", "name": "Burnt Oak", "naptan:AtcoCode": "940GZZLUBTK", "network": "London Underground", "public_transport": "station", "railway": "station", "source_ref": "https//en.wikipedia.org/wiki/List_of_London_Underground_stations", "station": "subway", "subway": "yes", "wheelchair": "no", "wikidata": "Q913515", "wikipedia": "en:Burnt Oak tube station"}}, {"type": "node", "id": 5182424569, "lat": 51.4682995, "lon": -0.2087947, "tags": {"fare_zone": "2", "line": "District", "name": "Putney Bridge", "naptan:AtcoCode": "940GZZLUPYB", "network": "London Underground", "network:wikidata": "Q20075", "public_transport": "station", "railway": "station", "source_ref": "https//en.wikipedia.org/wiki/List_of_London_Underground_stations", "station": "subway", "subway": "yes", "wheelchair": "no", "wikidata": "Q1974794", "wikipedia": "en:Putney Bridge tube station"}}, {"type": "node", "id": 5182424577, "lat": 51.4996647, "lon": -0.312979, "tags": {"fare_zone": "3", "line": "Piccadilly", "name": "Northfields", "network": "London Underground", "network:wikidata": "Q20075", "public_transport": "station", "railway": "station", "station": "subway", "subway": "yes", "wheelchair": "no", "wikidata": "Q764016", "wikipedia": "en:Northfields tube station"}}, {"type": "node", "id": 5182456569, "lat": 51.5054118, "lon": -0.0886993, "tags": {"fare_zone": "1", "line": "Jubilee;Northern", "name": "London Bridge", "naptan:AtcoCode": "940GZZLULNB", "network": "London Underground", "operator": "London Underground", "public_transport": "station", "railway": "station", "station": "subway", "subway": "yes", "wheelchair": "yes", "wikidata": "Q801125", "wikipedia": "en:London Bridge station"}}, {"type": "node", "id": 5182456574, "lat": 51.5027264, "lon": -0.1543249, "tags": {"fare_zone": "1", "layer": "-2", "line": "Piccadilly", "name": "Hyde Park Corner", "name:ru": "\u0413\u0430\u0439\u0434-\u043f\u0430\u0440\u043a-\u043a\u043e\u0440\u043d\u0435\u0440", "network": "London Underground", "network:wikidata": "Q20075", "public_transport": "station", "railway": "station", "station": "subway", "subway": "yes", "wheelchair": "no", "wikidata": "Q1279102", "wikipedia": "en:Hyde Park Corner tube station"}}, {"type": "node", "id": 5183350488, "lat": 51.5118458, "lon": -0.175108, "tags": {"fare_zone": "1", "line": "Central", "name": "Lancaster Gate", "name:ru": "\u041b\u0430\u043d\u043a\u0430\u0441\u0442\u0435\u0440-\u0433\u0435\u0439\u0442", "naptan:AtcoCode": "940GZZLULGT", "network": "London Underground", "public_transport": "station", "railway": "station", "source_ref": "http://en.wikipedia.org/wiki/List_of_London_Underground_stations#cite_note-usage-6", "station": "subway", "subway": "yes", "wheelchair": "no", "wikidata": "Q1431057", "wikipedia": "en:Lancaster Gate tube station"}}, {"type": "node", "id": 5183350489, "lat": 51.5754985, "lon": 0.0899693, "tags": {"fare_zone": "4", "line": "Central", "name": "Newbury Park", "naptan:AtcoCode": "9100ILFENBP", "network": "London Underground", "network:wikidata": "Q20075", "public_transport": "station", "railway": "station", "ref": "ZNP", "source_ref": "http://en.wikipedia.org/wiki/List_of_London_Underground_stations", "station": "subway", "subway": "yes", "wheelchair": "yes", "wheelchair:description": "Step-free access street to platform", "wikidata": "Q744426", "wikipedia": "en:Newbury Park tube station"}}, {"type": "node", "id": 5183350492, "lat": 51.5097107, "lon": -0.2881658, "tags": {"fare_zone": "3", "line": "District;Piccadilly", "name": "Ealing Common", "naptan:AtcoCode": "940GZZLUECM", "network": "London Underground", "public_transport": "station", "railway": "station", "source": "NPE", "station": "subway", "subway": "yes", "wheelchair": "limited", "wheelchair:description": "You can change between the District line westbound access from platform to train by manual boarding ramp and the Piccadilly line westbound.", "wikidata": "Q1276908", "wikipedia": "en:Ealing Common tube station"}}, {"type": "node", "id": 5183466819, "lat": 51.5843174, "lon": -0.2787137, "tags": {"fare_zone": "4", "line": "Jubilee", "name": "Kingsbury", "naptan:AtcoCode": "940GZZLUKBY", "network": "London Underground", "public_transport": "station", "railway": "station", "source_ref": "http://en.wikipedia.org/wiki/List_of_London_Underground_stations#cite_note-usage-6", "station": "subway", "subway": "yes", "wheelchair": "yes", "wheelchair:description": "Step-free access street to train", "wikidata": "Q1742147", "wikipedia": "en:Kingsbury tube station"}}, {"type": "node", "id": 5183466921, "lat": 51.5941903, "lon": -0.286181, "tags": {"fare_zone": "4", "line": "Jubilee", "name": "Queensbury", "naptan:AtcoCode": "940GZZLUQBY", "network": "London Underground", "operator": "London Underground", "public_transport": "station", "railway": "station", "station": "subway", "subway": "yes", "wheelchair": "no", "wikidata": "Q1566247", "wikipedia": "en:Queensbury tube station"}}, {"type": "node", "id": 5183760369, "lat": 51.578491, "lon": -0.3176997, "tags": {"addr:city": "Harrow", "addr:housename": "Northwick Park Station", "addr:postcode": "HA3 0AT", "addr:street": "Northwick Avenue", "fare_zone": "4", "internet_access": "no", "line": "Metropolitan", "name": "Northwick Park", "naptan:AtcoCode": "940GZZLUNKP", "network": "London Underground", "network:wikidata": "Q20075", "note:wheelchair": "No entry/exit", "operator": "Transport for London", "public_transport": "station", "railway": "station", "source": "survey", "source_ref": "https//en.wikipedia.org/wiki/List_of_London_Underground_stations", "station": "subway", "subway": "yes", "wheelchair": "limited", "wheelchair:description": "You can change between the northbound platform and the southbound platform - use this change between trains towards West Harrow and Pinner.", "wikidata": "Q1974743", "wikipedia": "en:Northwick Park tube station"}}, {"type": "node", "id": 5183760370, "lat": 51.5722732, "lon": -0.2958081, "tags": {"check_date:wheelchair": "2025-02-25", "fare_zone": "4", "line": "Metropolitan", "name": "Preston Road", "naptan:AtcoCode": "940GZZLUPRD", "network": "London Underground", "note:wheelchair": "No entry/exit", "operator": "Transport for London", "public_transport": "station", "railway": "station", "source": "survey", "source_ref": "https//en.wikipedia.org/wiki/List_of_London_Underground_stations", "station": "subway", "subway": "yes", "wheelchair": "no", "wikidata": "Q1974765", "wikipedia": "en:Preston Road tube station"}}, {"type": "node", "id": 5183760375, "lat": 51.5472307, "lon": -0.1806964, "tags": {"fare_zone": "2", "line": "Metropolitan;Jubilee", "name": "Finchley Road", "naptan:AtcoCode": "9400ZZLUFYR", "network": "London Underground", "public_transport": "station", "railway": "station", "ref": "ZFR", "source": "OS", "station": "subway", "subway": "yes", "wheelchair": "limited", "wheelchair:description": "Jubilee line access from platform to train by manual boarding ramp. You can change between the Metropolitan line southbound access from platform to train by manual boarding ramp and the Jubilee line southbound access from platform to train by manual board", "wikidata": "Q1300073", "wikipedia": "en:Finchley Road tube station"}}, {"type": "node", "id": 5183760376, "lat": 51.5795991, "lon": -0.3531364, "tags": {"fare_zone": "5", "line": "Metropolitan", "name": "West Harrow", "naptan:AtcoCode": "940GZZLUWHW", "network": "London Underground", "network:wikidata": "Q20075", "public_transport": "station", "railway": "station", "station": "subway", "subway": "yes", "wheelchair": "no", "wikidata": "Q1974740", "wikipedia": "en:West Harrow tube station"}}, {"type": "node", "id": 5183760378, "lat": 51.5766614, "lon": -0.3965092, "tags": {"fare_zone": "5", "line": "Metropolitan;Piccadilly", "name": "Eastcote", "naptan:AtcoCode": "940GZZLUEAE", "network": "London Underground", "network:wikidata": "Q20075", "operator": "London Underground", "public_transport": "station", "railway": "station", "source_ref": "https//en.wikipedia.org/wiki/List_of_London_Underground_stations", "station": "subway", "subway": "yes", "wheelchair": "no", "wikidata": "Q1278097", "wikipedia": "en:Eastcote tube station"}}, {"type": "node", "id": 5183760379, "lat": 51.5615698, "lon": -0.4423513, "tags": {"fare_zone": "6", "line": "Metropolitan;Piccadilly", "name": "Ickenham", "naptan:AtcoCode": "940GZZLUICK", "network": "London Underground", "network:wikidata": "Q20075", "public_transport": "station", "railway": "station", "source_ref": "https//en.wikipedia.org/wiki/List_of_London_Underground_stations", "station": "subway", "subway": "yes", "wheelchair": "yes", "wheelchair:description": "Access from platform to train by manual boarding ramp.", "wikidata": "Q729399", "wikipedia": "en:Ickenham tube station"}}, {"type": "node", "id": 5183760381, "lat": 51.5926589, "lon": -0.380635, "tags": {"fare_zone": "5", "line": "Metropolitan", "name": "Pinner", "naptan:AtcoCode": "940GZZLUPNR", "network": "London Underground", "network:wikidata": "Q20075", "operator": "London Underground", "public_transport": "station", "railway": "station", "source_ref": "https//en.wikipedia.org/wiki/List_of_London_Underground_stations", "station": "subway", "subway": "yes", "wheelchair": "yes", "wikidata": "Q1924802", "wikipedia": "en:Pinner tube station"}}, {"type": "node", "id": 5183760382, "lat": 51.6001534, "lon": -0.4084575, "tags": {"fare_zone": "6", "line": "Metropolitan", "name": "Northwood Hills", "naptan:AtcoCode": "940GZZLUNWH", "network": "London Underground", "network:wikidata": "Q20075", "operator": "London Underground", "public_transport": "station", "railway": "station", "source": "NPE", "source_ref": "https//en.wikipedia.org/wiki/List_of_London_Underground_stations", "station": "subway", "subway": "yes", "wheelchair": "no", "wikidata": "Q2000556", "wikipedia": "en:Northwood Hills tube station"}}, {"type": "node", "id": 5183760383, "lat": 51.6107965, "lon": -0.4237072, "tags": {"fare_zone": "6", "line": "Metropolitan", "name": "Northwood", "naptan:AtcoCode": "940GZZLUNOW", "network": "London Underground", "network:wikidata": "Q20075", "operator": "London Underground", "platforms": "2", "public_transport": "station", "railway": "station", "ref": "ZND", "source": "NPE", "source_ref": "https//en.wikipedia.org/wiki/List_of_London_Underground_stations", "station": "subway", "subway": "yes", "wheelchair": "no", "wikidata": "Q631448", "wikipedia": "en:Northwood tube station"}}, {"type": "node", "id": 5183791821, "lat": 51.5688027, "lon": 0.0086166, "tags": {"fare_zone": "3;4", "line": "Central", "name": "Leytonstone", "naptan:AtcoCode": "940GZZLULYS", "network": "London Underground", "operator": "London Underground", "platforms": "3", "public_transport": "station", "railway": "station", "source_ref": "http://en.wikipedia.org/wiki/List_of_London_Underground_stations#cite_note-usage-6", "station": "subway", "subway": "yes", "wheelchair": "no", "wikidata": "Q1822454", "wikipedia": "en:Leytonstone tube station"}}, {"type": "node", "id": 5183810356, "lat": 51.5792702, "lon": -0.3366561, "tags": {"fare_zone": "5", "line": "Metropolitan", "name": "Harrow-on-the-Hill", "naptan:AtcoCode": "9100HAROOTH", "network": "National Rail;London Underground", "network:subway": "London Underground", "network:train": "National Rail", "network:website": "https://www.nationalrail.co.uk/stations/hoh/", "network:wikidata": "Q26334", "operator": "London Underground", "public_transport": "station", "railway": "station", "ref:crs": "HOH", "station": "subway", "subway": "yes", "toilets:wheelchair": "no", "train": "yes", "wheelchair": "yes", "wikidata": "Q654577", "wikipedia": "en:Harrow-on-the-Hill station"}}, {"type": "node", "id": 5183843299, "lat": 51.5027051, "lon": -0.2799643, "tags": {"fare_zone": "3", "line": "District;Piccadilly", "name": "Acton Town", "naptan:AtcoCode": "940GZZLUACT", "network": "London Underground", "public_transport": "station", "railway": "station", "ref": "ZAT", "station": "subway", "subway": "yes", "wheelchair": "yes", "wikidata": "Q344481", "wikipedia": "en:Acton Town tube station"}}, {"type": "node", "id": 5183897519, "lat": 51.4940799, "lon": -0.1729072, "tags": {"fare_zone": "1", "line": "Piccadilly;District;Circle", "name": "South Kensington", "naptan:AtcoCode": "940GZZLUSKS", "network": "London Underground", "network:wikidata": "Q746021", "operator": "Transport for London", "operator:wikidata": "Q682520", "public_transport": "station", "railway": "station", "ref": "ZSK", "station": "subway", "subway": "yes", "train": "yes", "wheelchair": "no", "wheelchair:description": "Steps only from street level to platform level and subway to museums", "wikidata": "Q976035", "wikipedia": "en:South Kensington tube station"}}, {"type": "node", "id": 5206774617, "lat": 51.5204575, "lon": -0.1702993, "tags": {"fare_zone": "1", "line": "Bakerloo", "name": "Edgware Road (Bakerloo line)", "name:ru": "\u042d\u0434\u0436\u0432\u0435\u0440-\u0440\u043e\u0443\u0434", "naptan:AtcoCode": "940GZZLUERB", "network": "London Underground", "network:wikidata": "Q20075", "operator": "London Underground", "platforms": "4", "public_transport": "station", "railway": "station", "station": "subway", "subway": "yes", "wheelchair": "no", "wikidata": "Q1284426", "wikipedia": "en:Edgware Road tube station (Bakerloo line)"}}, {"type": "node", "id": 5206785234, "lat": 51.5222363, "lon": -0.1635046, "tags": {"fare_zone": "1", "line": "Bakerloo", "name": "Marylebone", "naptan:AtcoCode": "940GZZLUMYB", "network": "London Underground", "network:website": "https://www.nationalrail.co.uk/stations/myb/", "network:wikidata": "Q20075", "public_transport": "station", "railway": "station", "source": "Bing", "station": "subway", "subway": "yes", "wheelchair": "no", "wikidata": "Q649419", "wikipedia": "en:Marylebone station#London Underground"}}, {"type": "node", "id": 5207123395, "lat": 51.5072143, "lon": -0.1222409, "tags": {"fare_zone": "1", "line": "District;Bakerloo;Northern;Circle", "name": "Embankment", "name:ru": "\u042d\u043c\u0431\u0430\u043d\u043a\u043c\u0435\u043d\u0442", "naptan:AtcoCode": "940GZZLUEMB", "network": "London Underground", "public_transport": "station", "railway": "station", "ref": "ZEK", "station": "subway", "subway": "yes", "wheelchair": "no", "wikidata": "Q1334978", "wikimedia_commons": "Category:Embankment_tube_station", "wikipedia": "en:Embankment tube station"}}, {"type": "node", "id": 5207201516, "lat": 51.5089252, "lon": -0.1961978, "tags": {"fare_zone": "1;2", "line": "District;Central;Circle", "name": "Notting Hill Gate", "name:da": "Notting Hill Gate Station", "name:ru": "\u041d\u043e\u0442\u0442\u0438\u043d\u0433 \u0425\u0438\u043b\u043b \u0413\u0435\u0439\u0442", "naptan:AtcoCode": "940GZZLUNHG", "network": "London Underground", "public_transport": "station", "railway": "station", "station": "subway", "subway": "yes", "wheelchair": "no", "wikidata": "Q1803672", "wikipedia": "en:Notting Hill Gate tube station"}}, {"type": "node", "id": 5350830014, "lat": 51.503925, "lon": -0.1049663, "tags": {"fare_zone": "1", "indoor": "yes", "line": "Jubilee", "name": "Southwark", "name:ru": "\u0421\u0430\u0443\u0442\u0443\u0430\u0440\u043a", "naptan:AtcoCode": "940GZZLUSWK", "network": "London Underground", "network:wikidata": "Q20075", "public_transport": "station", "railway": "station", "ref": "ZSO", "station": "subway", "subway": "yes", "wheelchair": "yes", "wikidata": "Q38909", "wikimedia_commons": "Category:Southwark_tube_station", "wikipedia": "en:Southwark tube station"}}, {"type": "node", "id": 5355174730, "lat": 51.6136623, "lon": -0.2749555, "tags": {"fare_zone": "5", "line": "Northern", "name": "Edgware", "name:ja": "\u30a8\u30c3\u30b8\u30a6\u30a7\u30a2", "naptan:AtcoCode": "940GZZLUEGW", "network": "London Underground", "network:wikidata": "Q20075", "public_transport": "station", "railway": "station", "ref": "ZED", "source_ref": "https//en.wikipedia.org/wiki/List_of_London_Underground_stations", "station": "subway", "subway": "yes", "wheelchair": "yes", "wheelchair:description": "Step-free access street to train", "wikidata": "Q727723", "wikipedia": "en:Edgware tube station"}}, {"type": "node", "id": 5359714471, "lat": 51.5501727, "lon": -0.1388654, "tags": {"fare_zone": "2", "line": "Northern", "name": "Kentish Town", "naptan:AtcoCode": "9100KNTSHTN", "network": "National Rail;London Underground", "network:website": "https://www.nationalrail.co.uk/stations/ktn/", "network:wikidata": "Q26334", "operator": "London Underground", "public_transport": "station", "railway": "station", "ref:crs": "KTN", "source_ref": "http://en.wikipedia.org/wiki/List_of_London_Underground_stations#cite_note-usage-6", "start_date": "1868-10-01", "station": "subway", "subway": "yes", "train": "yes", "wheelchair": "no", "wikidata": "Q636614", "wikipedia": "en:Kentish Town station"}}, {"type": "node", "id": 5457046602, "lat": 51.5229834, "lon": -0.1833083, "tags": {"fare_zone": "2", "line": "Bakerloo", "name": "Warwick Avenue", "name:ru": "\u0423\u043e\u0440\u0432\u0438\u043a-\u0430\u0432\u0435\u043d\u044e", "naptan:AtcoCode": "940GZZLUWKA", "network": "London Underground", "network:wikidata": "Q20075", "operator": "Transport for London", "public_transport": "station", "railway": "station", "ref": "ZWV", "station": "subway", "subway": "yes", "wheelchair": "no", "wikidata": "Q1486729", "wikipedia": "en:Warwick Avenue tube station"}}, {"type": "node", "id": 5462552522, "lat": 51.5159715, "lon": -0.1305125, "tags": {"fare_zone": "1", "line": "Northern;Central", "name": "Tottenham Court Road", "naptan:AtcoCode": "940GZZLUTCR", "network": "London Underground", "public_transport": "station", "railway": "station", "ref:tiploc": "TOTCTRD", "station": "subway", "subway": "yes", "wheelchair": "yes", "wikidata": "Q1431094", "wikipedia": "en:Tottenham Court Road station"}}, {"type": "node", "id": 5472303633, "lat": 51.607376, "lon": -0.1249047, "tags": {"fare_zone": "3;4", "line": "Piccadilly", "name": "Bounds Green", "naptan:AtcoCode": "940GZZLUBDS", "network": "London Underground", "network:wikidata": "Q20075", "operator": "Transport for London", "operator:wikidata": "Q682520", "public_transport": "station", "railway": "station", "ref": "ZBG", "source_ref": "https//en.wikipedia.org/wiki/List_of_London_Underground_stations", "station": "subway", "subway": "yes", "wheelchair": "no", "wikidata": "Q895162", "wikipedia": "en:Bounds Green tube station"}}, {"type": "node", "id": 5474926328, "lat": 51.494109, "lon": -0.2250607, "tags": {"fare_zone": "2", "line": "Circle;Hammersmith & City", "name": "Hammersmith (Circle and Hammersmith & City lines)", "name:ru": "\u0425\u0430\u043c\u043c\u0435\u0440\u0441\u043c\u0438\u0442", "naptan:AtcoCode": "940GZZLUHSC", "network": "London Underground", "network:wikidata": "Q20075", "note": "check position", "public_transport": "station", "railway": "station", "station": "subway", "subway": "yes", "wheelchair": "yes", "wikidata": "Q1762419", "wikipedia": "en:Hammersmith tube station (Circle and Hammersmith & City lines)"}}, {"type": "node", "id": 5475675298, "lat": 51.5149144, "lon": -0.0975883, "tags": {"fare_zone": "1", "line": "Central", "name": "St. Paul's", "name:ru": "\u0421\u0435\u043d\u0442-\u041f\u043e\u043b\u0441", "naptan:AtcoCode": "940GZZLUSPU", "network": "London Underground", "old_name": "Post Office", "public_transport": "station", "railway": "station", "source:name": "local knowledge", "station": "subway", "subway": "yes", "wheelchair": "no", "wikidata": "Q1431081", "wikipedia": "en:St Paul's tube station"}}, {"type": "node", "id": 5482891928, "lat": 51.5565973, "lon": -0.1784251, "tags": {"fare_zone": "2;3", "layer": "-3", "level": "-4", "line": "Northern", "name": "Hampstead", "naptan:AtcoCode": "940GZZLUHTD", "network": "London Underground", "public_transport": "station", "railway": "station", "station": "subway", "subway": "yes", "wheelchair": "no", "wikidata": "Q1573996", "wikipedia": "en:Hampstead tube station"}}, {"type": "node", "id": 5482891929, "lat": 51.5503088, "lon": -0.1646146, "tags": {"fare_zone": "2", "line": "Northern", "name": "Belsize Park", "network": "London Underground", "operator": "Transport for London", "public_transport": "station", "railway": "station", "source_ref": "https//en.wikipedia.org/wiki/List_of_London_Underground_stations", "station": "subway", "subway": "yes", "wheelchair": "no", "wikidata": "Q604060", "wikipedia": "en:Belsize Park tube station"}}, {"type": "node", "id": 5482915472, "lat": 51.5528674, "lon": -0.1130095, "tags": {"fare_zone": "2", "line": "Piccadilly", "name": "Holloway Road", "name:ru": "\u0425\u043e\u043b\u043b\u043e\u0443\u044d\u0439-\u0440\u043e\u0443\u0434", "naptan:AtcoCode": "940GZZLUHWY", "network": "London Underground", "operator": "London Underground", "platforms": "2", "public_transport": "station", "railway": "station", "ref": "ZHR", "station": "subway", "subway": "yes", "website": "https://tfl.gov.uk/gettingaround/stations/1000114.aspx", "wheelchair": "no", "wikidata": "Q1624885", "wikipedia": "en:Holloway Road tube station"}}, {"type": "node", "id": 5489114067, "lat": 51.543722, "lon": -0.174982, "tags": {"fare_zone": "2", "line": "Jubilee", "name": "Swiss Cottage", "name:ru": "\u0421\u0432\u0438\u0441\u0441-\u043a\u043e\u0442\u0442\u0435\u0434\u0436", "naptan:AtcoCode": "940GZZLUSWC", "network": "London Underground", "note": "FIXME witha proper tube enterance", "public_transport": "station", "railway": "station", "station": "subway", "subway": "yes", "wheelchair": "no", "wikidata": "Q962261", "wikipedia": "en:Swiss Cottage tube station"}}, {"type": "node", "id": 5495828135, "lat": 51.5264341, "lon": -0.2839348, "tags": {"fare_zone": "3", "line": "Piccadilly", "name": "Park Royal", "naptan:AtcoCode": "940GZZLUPKR", "network": "London Underground", "network:wikidata": "Q20075", "public_transport": "station", "railway": "station", "source": "NPE", "station": "subway", "subway": "yes", "wheelchair": "no", "wikidata": "Q1663773", "wikipedia": "en:Park Royal tube station"}}, {"type": "node", "id": 5504917479, "lat": 51.5101068, "lon": -0.2237557, "tags": {"fare_zone": "2", "line": "Hammersmith & City;Circle", "name": "Wood Lane", "name:ru": "\u0412\u0443\u0434-\u043b\u0435\u0439\u043d", "naptan:AtcoCode": "940GZZLUWLA", "network": "London Underground", "platforms": "2", "public_transport": "station", "railway": "station", "station": "subway", "subway": "yes", "wheelchair": "yes", "wikidata": "Q2211127", "wikipedia": "en:Wood Lane tube station"}}, {"type": "node", "id": 5507411660, "lat": 51.5901482, "lon": -0.1027442, "tags": {"fare_zone": "3", "line": "Piccadilly", "name": "Turnpike Lane", "name:ru": "\u0422\u0435\u0440\u043d\u043f\u0430\u0439\u043a-\u043b\u0435\u0439\u043d", "naptan:AtcoCode": "940GZZLUTPN", "network": "London Underground", "network:wikidata": "Q20075", "operator": "Transport for London", "operator:wikidata": "Q682520", "public_transport": "station", "railway": "station", "ref": "ZTL", "station": "subway", "subway": "yes", "wheelchair": "no", "wikidata": "Q1757107", "wikipedia": "en:Turnpike Lane tube station"}}, {"type": "node", "id": 5571724044, "lat": 51.4027615, "lon": -0.1947552, "tags": {"fare_zone": "4", "line": "Northern", "name": "Morden", "naptan:AtcoCode": "940GZZLUMDN", "network": "London Underground", "network:wikidata": "Q20075", "not:network:wikidata": "Q111297173", "public_transport": "station", "railway": "station", "station": "subway", "subway": "yes", "wheelchair": "yes", "wheelchair:description": "Step-free access street to train", "wikidata": "Q1947443", "wikipedia": "en:Morden tube station"}}, {"type": "node", "id": 5585821560, "lat": 51.5149803, "lon": -0.3004067, "tags": {"addr:city": "London", "addr:postcode": "W5 2NU", "addr:street": "The Broadway", "fare_zone": "3", "line": "Central;District", "name": "Ealing Broadway", "naptan:AtcoCode": "9100EALINGB", "network": "National Rail;London Underground;Elizabeth Line", "network:website": "https://www.nationalrail.co.uk/stations/eal/", "network:wikidata": "Q26334", "operator": "TfL Rail", "public_transport": "station", "railway": "station", "ref:crs": "EAL", "source": "Yahoo", "station": "subway", "subway": "yes", "train": "yes", "wheelchair": "limited", "wheelchair:description": "National Rail access from platform to train by manual boarding ramp.", "wikidata": "Q800705", "wikipedia": "en:Ealing Broadway station"}}, {"type": "node", "id": 5585825335, "lat": 51.5230529, "lon": -0.1242529, "tags": {"fare_zone": "1", "line": "Piccadilly", "name": "Russell Square", "naptan:AtcoCode": "940GZZLURSQ", "network": "London Underground", "public_transport": "station", "railway": "station", "station": "subway", "subway": "yes", "wheelchair": "no", "wikidata": "Q1377634", "wikipedia": "en:Russell Square tube station"}}, {"type": "node", "id": 5585825355, "lat": 51.548482, "lon": -0.1183585, "tags": {"fare_zone": "2", "line": "Piccadilly", "name": "Caledonian Road", "naptan:AtcoCode": "940GZZLUCAR", "network": "London Underground", "operator": "London Underground", "public_transport": "station", "railway": "station", "source_ref": "http://en.wikipedia.org/wiki/List_of_London_Underground_stations", "station": "subway", "subway": "yes", "wheelchair": "yes", "wheelchair:description": "Step-free since 1906.", "wikidata": "Q1026585", "wikipedia": "en:Caledonian Road tube station"}}, {"type": "node", "id": 5585853828, "lat": 51.6307163, "lon": -0.1791837, "tags": {"addr:city": "London", "addr:postcode": "N20 9QP", "addr:street": "Totteridge Lane", "addr:suburb": "Whetstone", "fare_zone": "4", "line": "Northern", "name": "Totteridge & Whetstone", "naptan:AtcoCode": "940GZZLUTAW", "network": "London Underground", "public_transport": "station", "railway": "station", "station": "subway", "subway": "yes", "wheelchair": "no", "wikidata": "Q2028165", "wikipedia": "en:Totteridge & Whetstone tube station"}}, {"type": "node", "id": 5585857405, "lat": 51.5441141, "lon": -0.1534811, "tags": {"fare_zone": "2", "line": "Northern", "name": "Chalk Farm", "naptan:AtcoCode": "940GZZLUCFM", "network": "London Underground", "network:wikidata": "Q746021", "operator": "Transport for London", "operator:wikidata": "Q682520", "public_transport": "station", "railway": "station", "source": "Bing", "source_ref": "https//en.wikipedia.org/wiki/List_of_London_Underground_stations", "station": "subway", "subway": "yes", "train": "yes", "wheelchair": "no", "wikidata": "Q599135", "wikipedia": "en:Chalk Farm tube station"}}, {"type": "node", "id": 5614077964, "lat": 51.5154418, "lon": -0.1419563, "tags": {"fare_zone": "1", "line": "Central;Bakerloo;Victoria", "name": "Oxford Circus", "name:da": "Oxford Circus Station", "name:ru": "\u041e\u043a\u0441\u0444\u043e\u0440\u0434-\u0421\u0435\u0440\u043a\u0443\u0441", "naptan:AtcoCode": "940GZZLUOXC", "network": "London Underground", "network:wikidata": "Q20075", "operator": "Transport for London", "operator:wikidata": "Q682520", "platforms": "6", "public_transport": "station", "railway": "station", "station": "subway", "subway": "yes", "wheelchair": "limited", "wheelchair:description": "Cross-platform interchange between Bakerloo and Victoria lines in same direction only. No entry or exit.", "wikidata": "Q678791", "wikipedia": "en:Oxford Circus tube station"}}, {"type": "node", "id": 5700001161, "lat": 51.500574, "lon": 0.0043201, "tags": {"fare_zone": "2;3", "line": "Jubilee", "name": "North Greenwich", "naptan:AtcoCode": "940GZZLUNGW", "network": "London Underground", "network:wikidata": "Q20075", "public_transport": "station", "public_transport:version": "2", "railway": "station", "station": "subway", "subway": "yes", "wheelchair": "yes", "wikidata": "Q1757132"}}, {"type": "node", "id": 5700149213, "lat": 51.4979299, "lon": -0.0498405, "tags": {"fare_zone": "2", "line": "Jubilee", "name": "Canada Water", "naptan:AtcoCode": "9100CNDAW", "network": "London Underground;London Overground", "network:website": "https://www.nationalrail.co.uk/stations/zcw/", "network:wikidata": "Q26334", "public_transport": "station", "railway": "station", "ref:crs": "ZCW", "station": "subway", "subway": "yes", "toilets:wheelchair": "yes", "train": "yes", "wheelchair": "yes", "wheelchair:description": "Overground platforms Step-free to train. Jubilee: Step-free access street to train.", "wikidata": "Q800610", "wikipedia": "en:Canada Water station"}}, {"type": "node", "id": 5702714876, "lat": 51.5182516, "lon": -0.0890625, "tags": {"fare_zone": "1", "line": "Metropolitan;Northern;Circle;Hammersmith & City", "name": "Moorgate", "name:da": "Moorgate Station", "name:ru": "\u041c\u0443\u0440\u0433\u0435\u0439\u0442", "naptan:AtcoCode": "9100MRGT;9400ZZLUMGT", "network": "National Rail;London Underground", "network:subway": "London Underground", "network:train": "National Rail", "network:website": "https://www.nationalrail.co.uk/stations/mog/", "network:wikidata": "Q26334", "operator": "London Underground", "public_transport": "station", "public_transport:version": "2", "railway": "station", "ref:crs": "MOG", "station": "subway", "subway": "yes", "train": "yes", "wheelchair": "limited", "wheelchair:description": "Circle, Hammersmith & City and Metropolitan lines only.", "wikidata": "Q801210", "wikipedia": "en:Moorgate station"}}, {"type": "node", "id": 6091112768, "lat": 51.497437, "lon": -0.2094954, "tags": {"addr:city": "London", "addr:postcode": "W14 0NE", "addr:street": "Olympia Way", "fare_zone": "2", "line": "District", "name": "Kensington (Olympia)", "naptan:AtcoCode": "9100KENOLYM", "network": "National Rail;London Underground;London Overground", "network:website": "https://www.nationalrail.co.uk/stations/kpa/", "network:wikidata": "Q26334", "old_name": "Kensington Addison Road", "operator": "Transport for London", "public_transport": "station", "railway": "station", "ref:crs": "KPA", "station": "subway", "wheelchair": "yes", "wikidata": "Q801002", "wikipedia": "en:Kensington (Olympia) station"}}, {"type": "node", "id": 6095751323, "lat": 51.5569909, "lon": -0.3990635, "tags": {"addr:city": "Ruislip", "addr:postcode": "HA4 6TP", "addr:street": "Station Road", "fare_zone": "5", "internet_access": "wlan", "line": "Central", "name": "South Ruislip", "naptan:AtcoCode": "9100SRUISLP", "network": "National Rail;London Underground", "network:website": "https://www.nationalrail.co.uk/stations/sru/", "network:wikidata": "Q26334", "operator": "London Underground;Chiltern Railways", "public_transport": "station", "railway": "station", "ref:crs": "SRU", "source": "NPE", "source_ref": "http://en.wikipedia.org/wiki/List_of_London_railway_stations;http://en.wikipedia.org/wiki/List_of_London_Underground_stations", "station": "subway", "subway": "yes", "train": "yes", "wheelchair": "no", "wikidata": "Q801459", "wikipedia": "en:South Ruislip station"}}, {"type": "node", "id": 6150502124, "lat": 51.5235769, "lon": -0.2597818, "tags": {"addr:city": "London", "addr:housename": "North Acton Station", "addr:postcode": "W3 6UP", "addr:street": "Victoria Road", "fare_zone": "2;3", "line": "Central", "name": "North Acton", "naptan:AtcoCode": "940GZZLUNAN", "network": "London Underground", "operator": "Transport for London", "public_transport": "station", "railway": "station", "ref": "ZNA", "source": "survey", "station": "subway", "subway": "yes", "wheelchair": "no", "wikidata": "Q83842", "wikipedia": "en:North Acton tube station"}}, {"type": "node", "id": 6195731433, "lat": 51.4921398, "lon": -0.2233005, "tags": {"fare_zone": "2", "level": "-1", "line": "Piccadilly;District", "name": "Hammersmith (District and Piccadilly lines)", "naptan:AtcoCode": "940GZZLUHSD", "network": "London Underground", "network:wikidata": "Q20075", "operator": "London Underground", "public_transport": "station", "railway": "station", "ref": "ZHA", "station": "subway", "subway": "yes", "wheelchair": "yes", "wheelchair:description": "Step-free access street to platform", "wikidata": "Q7486929", "wikipedia": "en:Hammersmith tube station (District and Piccadilly lines)"}}, {"type": "node", "id": 6260922569, "lat": 51.5098481, "lon": -0.0766986, "tags": {"covered": "yes", "fare_zone": "1", "layer": "-2", "line": "District;Circle", "location": "underground", "name": "Tower Hill", "name:da": "Tower Hill", "name:ru": "\u0422\u0430\u0443\u044d\u0440 \u0425\u0438\u043b\u043b", "name:uk": "\u0422\u0430\u0443\u0435\u0440 \u0425\u0456\u043b\u043b", "naptan:AtcoCode": "940GZZLUTWH", "network": "London Underground", "operator": "London Underground", "public_transport": "station", "railway": "station", "ref": "ZTH", "station": "subway", "subway": "yes", "wheelchair": "yes", "wikidata": "Q1475207", "wikimedia_commons": "Category:Tower Hill tube station", "wikipedia": "en:Tower Hill tube station"}}, {"type": "node", "id": 6306871525, "lat": 51.5954091, "lon": -0.2499296, "tags": {"fare_zone": "4", "line": "Northern", "name": "Colindale", "naptan:AtcoCode": "940GZZLUCND", "network": "London Underground", "public_transport": "station", "railway": "station", "station": "subway", "subway": "yes", "wheelchair": "no", "wikidata": "Q1108796", "wikipedia": "en:Colindale tube station"}}, {"type": "node", "id": 6306871529, "lat": 51.5723003, "lon": -0.194027, "tags": {"fare_zone": "3", "line": "Northern", "name": "Golders Green", "naptan:AtcoCode": "940GZZLUGGN", "network": "London Underground", "operator": "TFL", "public_transport": "station", "railway": "station", "source": "OS", "station": "subway", "subway": "yes", "wheelchair": "yes", "wheelchair:description": "Step-free access street to platform", "wikidata": "Q2167448", "wikipedia": "en:Golders Green tube station"}}, {"type": "node", "id": 6307053732, "lat": 51.5714026, "lon": -0.4213375, "tags": {"fare_zone": "6", "line": "Metropolitan;Piccadilly", "name": "Ruislip", "naptan:AtcoCode": "940GZZLURSP", "network": "London Underground", "network:wikidata": "Q20075", "operator": "London Underground", "public_transport": "station", "railway": "station", "station": "subway", "subway": "yes", "wheelchair": "limited", "wikidata": "Q1287877", "wikipedia": "en:Ruislip tube station"}}, {"type": "node", "id": 6307053733, "lat": 51.5752109, "lon": -0.3714658, "tags": {"fare_zone": "5", "line": "Metropolitan;Piccadilly", "name": "Rayners Lane", "naptan:AtcoCode": "940GZZLURYL", "network": "London Underground", "network:wikidata": "Q20075", "public_transport": "station", "railway": "station", "station": "subway", "subway": "yes", "wheelchair": "limited", "wheelchair:description": "You can change between the Metropolitan line and Piccadilly line eastbound. You can change between the Metropolitan line and Piccadilly line westbound. Access from platform to train by manual boarding ramp.", "wikidata": "Q7299331", "wikipedia": "en:Rayners Lane"}}, {"type": "node", "id": 6307174159, "lat": 51.5543358, "lon": -0.250749, "tags": {"check_date:wheelchair": "2025-03-01", "fare_zone": "3", "line": "Jubilee", "name": "Neasden", "naptan:AtcoCode": "940GZZLUNDN", "network": "London Underground", "public_transport": "station", "railway": "station", "station": "subway", "subway": "yes", "wheelchair": "no", "wikidata": "Q1857076", "wikipedia": "en:Neasden tube station"}}, {"type": "node", "id": 6312643867, "lat": 51.4665357, "lon": -0.4239942, "tags": {"fare_zone": "5;6", "level": "-1", "line": "Piccadilly", "name": "Hatton Cross", "naptan:AtcoCode": "940GZZLUHNX", "network": "London Underground", "network:wikidata": "Q20075", "public_transport": "station", "railway": "station", "station": "subway", "subway": "yes", "wheelchair": "no", "wikidata": "Q1197072", "wikipedia": "en:Hatton Cross tube station"}}, {"type": "node", "id": 6312645092, "lat": 51.4815507, "lon": -0.3518348, "tags": {"fare_zone": "4", "line": "Piccadilly", "name": "Osterley", "naptan:AtcoCode": "940GZZLUOSY", "network": "London Underground", "network:wikidata": "Q20075", "operator": "TfL", "public_transport": "station", "railway": "station", "station": "subway", "subway": "yes", "toilets:wheelchair": "no", "wheelchair": "yes", "wheelchair:description": "Access from platform to train by manual boarding ramp.", "wikidata": "Q651554", "wikipedia": "en:Osterley tube station"}}, {"type": "node", "id": 6312813705, "lat": 51.4949692, "lon": -0.2458881, "tags": {"fare_zone": "2", "line": "District", "name": "Stamford Brook", "naptan:AtcoCode": "940GZZLUSFB", "network": "London Underground", "network:wikidata": "Q20075", "operator": "Transport for London", "public_transport": "station", "railway": "station", "station": "subway", "subway": "yes", "wheelchair": "no", "wikidata": "Q1342356", "wikipedia": "en:Stamford Brook tube station"}}, {"type": "node", "id": 6312813706, "lat": 51.4951314, "lon": -0.2546948, "tags": {"fare_zone": "2;3", "line": "District;Piccadilly", "name": "Turnham Green", "naptan:AtcoCode": "940GZZLUTNG", "network": "London Underground", "network:wikidata": "Q20075", "not:network:wikidata": "Q111297173", "operator": "Transport for London", "public_transport": "station", "railway": "station", "ref": "ZTU", "station": "subway", "subway": "yes", "wheelchair": "no", "wikidata": "Q519434", "wikipedia": "en:Turnham Green tube station"}}, {"type": "node", "id": 6312813707, "lat": 51.4945622, "lon": -0.2678739, "tags": {"fare_zone": "3", "line": "District", "name": "Chiswick Park", "naptan:AtcoCode": "940GZZLUCWP", "network": "London Underground", "network:wikidata": "Q20075", "operator": "Transport for London", "public_transport": "station", "railway": "station", "station": "subway", "subway": "yes", "wheelchair": "no", "wikidata": "Q1074875", "wikipedia": "en:Chiswick Park tube station"}}, {"type": "node", "id": 6340616347, "lat": 51.4916123, "lon": -0.193903, "tags": {"fare_zone": "1;2", "line": "District;Piccadilly", "name": "Earl's Court", "naptan:AtcoCode": "940GZZLUECT", "network": "London Underground", "network:wikidata": "Q20075", "platforms": "6", "public_transport": "station", "railway": "station", "ref": "ZET", "source_ref": "http://en.wikipedia.org/wiki/List_of_London_Underground_stations", "start_date": "1869-04-12", "station": "subway", "subway": "yes", "wheelchair": "yes", "wikidata": "Q1277562", "wikimedia_commons": "Category:Earl's Court tube station", "wikipedia": "en:Earl's Court tube station"}}, {"type": "node", "id": 6340707455, "lat": 51.5403111, "lon": 0.1265241, "tags": {"addr:city": "Dagenham", "addr:country": "GB", "addr:housename": "Becontree station", "addr:postcode": "RM9 4TP", "addr:street": "Gale Street", "fare_zone": "5", "line": "District", "name": "Becontree", "naptan:AtcoCode": "940GZZLUBEC", "network": "London Underground", "not:network:wikidata": "Q746021", "operator": "Transport for London", "platforms": "2", "public_transport": "station", "railway": "station", "ref": "ZBZ", "source": "Survey of 2014-09-01", "station": "subway", "subway": "yes", "wheelchair": "no", "wikidata": "Q813772", "wikipedia": "en:Becontree tube station"}}, {"type": "node", "id": 6342098119, "lat": 51.5733973, "lon": -0.4117997, "tags": {"addr:country": "GB", "addr:postcode": "HA4 9AA", "addr:street": "Victoria Road", "fare_zone": "6", "line": "Metropolitan;Piccadilly", "name": "Ruislip Manor", "naptan:AtcoCode": "940GZZLURSM", "network": "London Underground", "network:wikidata": "Q20075", "operator": "London Underground", "public_transport": "station", "railway": "station", "station": "subway", "subway": "yes", "wheelchair": "no", "wikidata": "Q477733", "wikipedia": "en:Ruislip Manor tube station"}}, {"type": "node", "id": 6343726718, "lat": 51.5484582, "lon": -0.3695247, "tags": {"addr:city": "Northolt", "addr:country": "GB", "addr:housename": "Northolt Station", "addr:postcode": "UB5 4AA", "addr:street": "Mandeville Road", "fare_zone": "5", "line": "Central", "name": "Northolt", "naptan:AtcoCode": "940GZZLUNHT", "network": "London Underground", "network:wikidata": "Q20075", "operator": "Transport for London", "public_transport": "station", "railway": "station", "source_ref": "http://en.wikipedia.org/wiki/List_of_London_Underground_stations", "station": "subway", "subway": "yes", "wheelchair": "no", "wikidata": "Q1317971", "wikipedia": "en:Northolt tube station"}}, {"type": "node", "id": 6346221304, "lat": 51.5364952, "lon": -0.3225887, "tags": {"fare_zone": "4", "line": "Central", "name": "Perivale", "naptan:AtcoCode": "940GZZLUPVL", "network": "London Underground", "network:wikidata": "Q20075", "public_transport": "station", "railway": "station", "source": "NPE", "station": "subway", "subway": "yes", "wheelchair": "no", "wikidata": "Q1650871", "wikipedia": "en:Perivale tube station"}}, {"type": "node", "id": 6353333968, "lat": 51.6068074, "lon": 0.0340219, "tags": {"fare_zone": "4", "line": "Central", "name": "Woodford", "naptan:AtcoCode": "940GZZLUWOF", "network": "London Underground", "network:wikidata": "Q20075", "public_transport": "station", "railway": "station", "source_ref": "http://en.wikipedia.org/wiki/List_of_London_Underground_stations", "station": "subway", "subway": "yes", "wheelchair": "yes", "wikidata": "Q630409", "wikipedia": "en:Woodford tube station"}}, {"type": "node", "id": 6357988569, "lat": 51.5303098, "lon": -0.2936453, "tags": {"fare_zone": "3", "line": "Central", "name": "Hanger Lane", "naptan:AtcoCode": "940GZZLUHGR", "network": "London Underground", "network:wikidata": "Q20075", "public_transport": "station", "railway": "station", "station": "subway", "subway": "yes", "wheelchair": "no", "wikidata": "Q1305890", "wikipedia": "en:Hanger Lane tube station"}}, {"type": "node", "id": 6358768337, "lat": 51.5582655, "lon": 0.2347689, "tags": {"addr:city": "Hornchurch", "addr:country": "GB", "addr:housename": "Upminster Bridge Station", "addr:postcode": "RM12 6PL", "addr:street": "Upminster Road", "fare_zone": "6", "line": "District", "name": "Upminster Bridge", "naptan:AtcoCode": "940GZZLUUPB", "network": "London Underground", "operator": "Transport for London", "platforms": "2", "public_transport": "station", "railway": "station", "source": "Survey of 2014-09-05", "station": "subway", "subway": "yes", "wheelchair": "no", "wikidata": "Q1489665", "wikipedia": "en:Upminster Bridge tube station"}}, {"type": "node", "id": 6358789875, "lat": 51.5538747, "lon": 0.2181092, "tags": {"addr:city": "Hornchurch", "addr:country": "GB", "addr:housename": "Hornchurch Station", "addr:postcode": "RM12 6LS", "addr:street": "Station Lane", "fare_zone": "6", "layer": "1", "line": "District", "name": "Hornchurch", "naptan:AtcoCode": "940GZZLUHCH", "network": "London Underground", "operator": "Transport for London", "platforms": "2", "public_transport": "station", "railway": "station", "source": "Survey of 2014-08-31", "station": "subway", "subway": "yes", "wheelchair": "no", "wikidata": "Q1628404", "wikipedia": "en:Hornchurch tube station"}}, {"type": "node", "id": 6358823742, "lat": 51.544018, "lon": 0.1649496, "tags": {"addr:country": "GB", "addr:housename": "Dagenham East station", "addr:street": "Rainham Road South", "fare_zone": "5", "layer": "1", "line": "District", "name": "Dagenham East", "naptan:AtcoCode": "940GZZLUDGE", "network": "London Underground", "not:network:wikidata": "Q746021", "operator": "Transport for London", "platforms": "3", "public_transport": "station", "railway": "station", "ref": "ZDE", "source": "Survey of 2014-08-31", "station": "subway", "subway": "yes", "wheelchair": "no", "wikidata": "Q1157204", "wikipedia": "en:Dagenham East tube station"}}, {"type": "node", "id": 6358827604, "lat": 51.5415534, "lon": 0.1456377, "tags": {"addr:city": "Dagenham", "addr:country": "GB", "addr:housename": "Dagenham Heathway Station", "addr:postcode": "RM9 5AN", "addr:street": "Heathway", "fare_zone": "5", "layer": "1", "line": "District", "name": "Dagenham Heathway", "naptan:AtcoCode": "940GZZLUDGY", "network": "London Underground", "not:network:wikidata": "Q746021", "operator": "Transport for London", "platforms": "2", "public_transport": "station", "railway": "station", "source": "Survey of 2014-09-01", "station": "subway", "subway": "yes", "wheelchair": "yes", "wikidata": "Q1157207", "wikipedia": "en:Dagenham Heathway tube station"}}, {"type": "node", "id": 6361189478, "lat": 51.6188526, "lon": -0.3026271, "tags": {"addr:city": "Middlesex", "addr:country": "GB", "addr:postcode": "HA7 4PD", "addr:street": "London Road", "description": "The station has Wheelchair Access to the ticket office & platforms, although stairs connect the two. To get between them, the accessible route involves a footpath through the car park.", "fare_zone": "5", "line": "Jubilee", "name": "Stanmore", "naptan:AtcoCode": "940GZZLUSTM", "network": "London Underground", "operator": "Transport for London", "public_transport": "station", "railway": "station", "ref": "ZSM", "source_ref": "http://en.wikipedia.org/wiki/List_of_London_Underground_stations", "station": "subway", "subway": "yes", "wheelchair": "yes", "wikidata": "Q1757110", "wikipedia": "en:Stanmore tube station"}}, {"type": "node", "id": 6361199503, "lat": 51.6080065, "lon": -0.2947453, "tags": {"building:levels": "1", "fare_zone": "5", "line": "Jubilee", "name": "Canons Park", "naptan:AtcoCode": "940GZZLUCPK", "network": "London Underground", "public_transport": "station", "railway": "station", "station": "subway", "subway": "yes", "wheelchair": "no", "wikidata": "Q1033599", "wikipedia": "en:Canons Park tube station"}}, {"type": "node", "id": 6365838769, "lat": 51.549579, "lon": 0.1974303, "tags": {"addr:city": "Hornchurch", "addr:housename": "Elm Park Station", "addr:postcode": "RM12 4RW", "addr:street": "The Broadway", "fare_zone": "6", "line": "District", "name": "Elm Park", "naptan:AtcoCode": "940GZZLUEPK", "network": "London Underground", "operator": "Transport for London", "platforms": "2", "public_transport": "station", "railway": "station", "source": "Survey of 2014-08-31", "station": "subway", "subway": "yes", "wheelchair": "yes", "wikidata": "Q1332680", "wikipedia": "en:Elm Park tube station"}}, {"type": "node", "id": 6367227349, "lat": 51.5568183, "lon": -0.0051322, "tags": {"addr:city": "London", "addr:country": "GB", "addr:housename": "Leyton Station", "addr:postcode": "E10 5PS", "addr:street": "High Road Leyton", "check_date:wheelchair": "2023-01-08", "fare_zone": "3", "line": "Central", "name": "Leyton", "naptan:AtcoCode": "940GZZLULYN", "network": "London Underground", "operator": "Transport for London", "public_transport": "station", "railway": "station", "source": "Survey of 2014-09-13", "station": "subway", "subway": "yes", "wheelchair": "no", "wikidata": "Q1734740", "wikipedia": "en:Leyton tube station"}}, {"type": "node", "id": 6367262958, "lat": 51.4586138, "lon": -0.2112429, "tags": {"addr:housename": "East Putney Station", "addr:street": "Station Approach", "fare_zone": "2;3", "line": "District", "name": "East Putney", "name:ru": "\u0418\u0441\u0442-\u041f\u0443\u0442\u043d\u0438", "naptan:AtcoCode": "940GZZLUEPY", "network": "London Underground", "network:wikidata": "Q20075", "not:network:wikidata": "Q111297173", "operator": "Transport for London", "operator:wikidata": "Q682520", "platforms": "2", "public_transport": "station", "railway": "station", "ref": "ZPU", "station": "subway", "subway": "yes", "wheelchair": "no", "wikidata": "Q1277984", "wikipedia": "en:East Putney tube station"}}, {"type": "node", "id": 6368951709, "lat": 51.5109659, "lon": -0.1143345, "tags": {"addr:city": "London", "fare_zone": "1", "line": "District;Circle", "name": "Temple", "name:ru": "\u0422\u0435\u043c\u043f\u043b", "naptan:AtcoCode": "9400ZZLUTMP", "network": "London Underground", "not:network:wikidata": "Q111297173", "operator": "Transport for London", "platforms": "2", "public_transport": "station", "railway": "station", "start_date": "1870-05-30", "station": "subway", "subway": "yes", "wheelchair": "no", "wikidata": "Q1431071", "wikimedia_commons": "Category:Temple tube station", "wikipedia": "en:Temple tube station"}}, {"type": "node", "id": 6391246144, "lat": 51.582893, "lon": -0.0199941, "tags": {"fare_zone": "3", "line": "Victoria", "name": "Walthamstow Central", "name:ru": "\u0423\u043e\u043b\u0442\u0435\u043c\u0441\u0442\u043e\u0443 \u0421\u0435\u043d\u0442\u0440\u0430\u043b", "naptan:AtcoCode": "9100WLTWCEN", "network": "London Underground;London Overground", "network:website": "https://www.nationalrail.co.uk/stations/whc/", "network:wikidata": "Q26334", "old_name": "4", "platforms": "4", "public_transport": "station", "railway": "station", "ref:crs": "WHC", "source": "local knowledge", "station": "subway", "wheelchair": "limited", "wheelchair:description": "London Overground access from platform to train by manual boarding ramp. Step-free platform interchange requires a 200m journey via street. Use the Station Approach entrance for southbound platform. Use the Selborne Road entrance for northbound platform.", "wikidata": "Q801582", "wikipedia": "en:Walthamstow Central station"}}, {"type": "node", "id": 6399598539, "lat": 51.5408036, "lon": -0.3000963, "tags": {"addr:housename": "Alperton Station", "addr:postcode": "HA0 4LL", "addr:street": "Ealing Road", "fare_zone": "4", "line": "Piccadilly", "name": "Alperton", "naptan:AtcoCode": "940GZZLUALP", "network": "London Underground", "network:wikidata": "Q20075", "operator": "Transport for London", "public_transport": "station", "railway": "station", "station": "subway", "subway": "yes", "wheelchair": "no", "wikidata": "Q1488320", "wikipedia": "en:Alperton tube station"}}, {"type": "node", "id": 6400752013, "lat": 51.5130942, "lon": -0.1242695, "tags": {"fare_zone": "1", "line": "Piccadilly", "name": "Covent Garden", "name:en": "Covent Garden", "name:ru": "\u041a\u043e\u0432\u0435\u043d\u0442-\u0413\u0430\u0440\u0434\u0435\u043d", "naptan:AtcoCode": "940GZZLUCGN", "network": "London Underground", "public_transport": "station", "railway": "station", "station": "subway", "subway": "yes", "wheelchair": "no", "wikidata": "Q38879", "wikipedia": "en:Covent Garden tube station"}}, {"type": "node", "id": 6401499742, "lat": 51.5353523, "lon": -0.1742097, "tags": {"addr:housename": "St. John's Wood Station", "fare_zone": "2", "internet_access": "wlan", "internet_access:access": "customers;Virgin Media;EE;Vodafone;O2", "internet_access:operator": "Virgin Media", "internet_access:ssid": "Virgin Media WiFi", "line": "Jubilee", "name": "St. John's Wood", "naptan:AtcoCode": "940GZZLUSJW", "network": "London Underground", "operator": "London Underground", "public_transport": "station", "railway": "station", "source": "OS", "station": "subway", "subway": "yes", "website": "https://tfl.gov.uk/tube/stop/940GZZLUSJW/st-johns-wood-underground-station", "wheelchair": "no", "wikidata": "Q1549556", "wikipedia": "en:St John's Wood tube station"}}, {"type": "node", "id": 6402129352, "lat": 51.5394005, "lon": 0.0526042, "tags": {"fare_zone": "3;4", "line": "District;Hammersmith & City", "name": "East Ham", "naptan:AtcoCode": "940GZZLUEHM", "network": "London Underground", "network:wikidata": "Q20075", "operator": "Transport for London", "platforms": "2", "public_transport": "station", "public_transport:version": "2", "railway": "station", "ref": "ZEH", "source_ref": "https//en.wikipedia.org/wiki/List_of_London_Underground_stations", "station": "subway", "subway": "yes", "wheelchair": "yes", "wikidata": "Q1269975", "wikipedia": "en:East Ham tube station"}}, {"type": "node", "id": 6402176065, "lat": 51.5246287, "lon": -0.0123189, "tags": {"addr:city": "London", "addr:country": "GB", "addr:housename": "Bromley-by-Bow Station", "addr:postcode": "E3 3JJ", "addr:street": "Blackwall Tunnel Northern Approach", "fare_zone": "2;3", "line": "District;Hammersmith & City", "name": "Bromley-by-Bow", "naptan:AtcoCode": "940GZZLUBBB", "network": "London Underground", "operator": "Transport for London", "public_transport": "station", "public_transport:version": "2", "railway": "station", "ref": "ZBW", "station": "subway", "subway": "yes", "wheelchair": "yes", "wheelchair:description": "Access from platform to train by manual boarding ramp", "wikidata": "Q926679", "wikipedia": "en:Bromley-by-Bow tube station"}}, {"type": "node", "id": 6402222390, "lat": 51.5035036, "lon": -0.0186272, "tags": {"fare_zone": "2", "internet_access": "wlan", "internet_access:fee": "no", "line": "Jubilee", "name": "Canary Wharf", "name:zh": "\u91d1\u4e1d\u96c0\u7801\u5934", "naptan:AtcoCode": "940GZZLUCYF", "network": "London Underground", "network:wikidata": "Q20075", "noaddress": "yes", "operator": "Transport for London", "public_transport": "station", "railway": "station", "station": "subway", "subway": "yes", "wheelchair": "yes", "wikidata": "Q1032842", "wikipedia": "en:Canary Wharf tube station"}}, {"type": "node", "id": 6403994178, "lat": 51.5306063, "lon": -0.2244449, "tags": {"addr:city": "London", "addr:country": "GB", "addr:postcode": "NW10 5JT", "addr:street": "College Road", "fare_zone": "2", "line": "Bakerloo", "name": "Kensal Green", "naptan:AtcoCode": "9100KENSLG", "network": "National Rail;London Underground;London Overground", "network:website": "https://www.nationalrail.co.uk/stations/knl/", "network:wikidata": "Q26334", "not:addr:postcode": "HA10 5JT", "public_transport": "station", "railway": "station", "ref:crs": "KNL", "ref:stanox": "72272", "ref:tiploc": "KENSLG", "source:network": "Sign", "source_ref": "http://en.wikipedia.org/wiki/List_of_London_railway_stations;http://en.wikipedia.org/wiki/London_Overground#Stations;http://en.wikipedia.org/wiki/List_of_London_Underground_stations#cite_note-usage-6", "station": "subway", "subway": "yes", "wheelchair": "no", "wikidata": "Q800999", "wikipedia": "en:Kensal Green station"}}, {"type": "node", "id": 6404013964, "lat": 51.5363567, "lon": -0.257833, "tags": {"addr:city": "London", "addr:country": "GB", "addr:housename": "Harlesden Station", "addr:postcode": "NW10 7AA", "addr:street": "Acton Lane", "fare_zone": "3", "line": "Bakerloo", "name": "Harlesden", "naptan:AtcoCode": "9100HARLSDN", "network": "London Underground;London Overground", "network:website": "https://www.nationalrail.co.uk/stations/hdn/", "network:wikidata": "Q26334", "public_transport": "station", "railway": "station", "ref:crs": "HDN", "ref:stanox": "72033", "ref:tiploc": "HARLSDN", "source": "http://en.wikipedia.org/wiki/List_of_London_railway_stations;http://en.wikipedia.org/wiki/List_of_London_Underground_stations;http://en.wikipedia.org/wiki/London_Overground#Stations", "station": "subway", "subway": "yes", "wheelchair": "no", "wikidata": "Q800892", "wikipedia": "en:Harlesden station"}}, {"type": "node", "id": 6404031521, "lat": 51.5468194, "lon": -0.1899646, "tags": {"colour": "silver", "fare_zone": "2", "layer": "1", "line": "Jubilee", "name": "West Hampstead", "naptan:AtcoCode": "9400ZZLUWHP", "network": "London Underground", "operator": "London Transport", "public_transport": "station", "railway": "station", "source:building": "survey", "source:name": "survey", "station": "subway", "subway": "yes", "wheelchair": "no", "wikidata": "Q1857089", "wikipedia": "en:West Hampstead tube station"}}, {"type": "node", "id": 6407565244, "lat": 51.4977004, "lon": -0.0643453, "tags": {"fare_zone": "2", "line": "Jubilee", "name": "Bermondsey", "naptan:AtcoCode": "940GZZLUBMY", "network": "London Underground", "network:wikidata": "Q20075", "operator": "London Underground", "public_transport": "station", "railway": "station", "ref": "ZEO", "station": "subway", "subway": "yes", "wheelchair": "yes", "wikidata": "Q822041", "wikipedia": "en:Bermondsey tube station"}}, {"type": "node", "id": 6407577779, "lat": 51.5066192, "lon": -0.1429113, "tags": {"fare_zone": "1", "line": "Piccadilly;Victoria;Jubilee", "name": "Green Park", "name:ru": "\u0413\u0440\u0438\u043d-\u043f\u0430\u0440\u043a", "naptan:AtcoCode": "940GZZLUGPK", "network": "London Underground", "network:wikidata": "Q20075", "old_name": "Dover Street", "operator": "London Underground", "platforms": "4", "public_transport": "station", "railway": "station", "station": "subway", "subway": "yes", "wheelchair": "yes", "wikidata": "Q1366462", "wikipedia": "en:Green Park tube station"}}, {"type": "node", "id": 6410085030, "lat": 51.546655, "lon": -0.4775114, "tags": {"fare_zone": "6", "line": "Metropolitan;Piccadilly", "name": "Uxbridge", "naptan:AtcoCode": "940GZZLUUXB", "network": "London Underground", "network:wikidata": "Q20075", "operator": "LU ltd. on behalf of TfL", "public_transport": "station", "railway": "station", "station": "subway", "subway": "yes", "wheelchair": "yes", "wikidata": "Q1757126", "wikipedia": "en:Uxbridge tube station"}}, {"type": "node", "id": 6410109228, "lat": 51.5536028, "lon": -0.4504637, "tags": {"addr:city": "Uxbridge", "addr:country": "GB", "addr:housename": "Hillingdon Station", "addr:postcode": "UB10 9NR", "addr:street": "Long Lane", "addr:suburb": "Hillingdon", "alt_name": "Hillingdon (Swakeleys)", "fare_zone": "6", "line": "Metropolitan;Piccadilly", "name": "Hillingdon", "naptan:AtcoCode": "910GHLNDBUS", "network": "London Underground", "network:wikidata": "Q20075", "operator": "Transport for London", "public_transport": "station", "railway": "station", "ref": "ZHD", "source_ref": "https//en.wikipedia.org/wiki/List_of_London_Underground_stations", "station": "subway", "subway": "yes", "wheelchair": "yes", "wikidata": "Q570560", "wikipedia": "en:Hillingdon tube station"}}, {"type": "node", "id": 6410165090, "lat": 51.5017564, "lon": -0.2265662, "tags": {"addr:city": "London", "addr:housename": "Goldhawk Road Station", "addr:postcode": "W12 8EG", "addr:street": "Goldhawk Road", "fare_zone": "2", "line": "Circle;Hammersmith & City", "name": "Goldhawk Road", "naptan:AtcoCode": "940GZZLUGHK", "network": "London Underground", "operator": "Transport for London", "public_transport": "station", "railway": "station", "source": "OS", "source_ref": "https//en.wikipedia.org/wiki/List_of_London_Underground_stations", "station": "subway", "subway": "yes", "wheelchair": "no", "wikidata": "Q301995", "wikipedia": "en:Goldhawk Road tube station"}}, {"type": "node", "id": 6410181628, "lat": 51.5043576, "lon": -0.2183251, "tags": {"addr:city": "London", "addr:country": "GB", "addr:postcode": "W12 8ND", "addr:street": "Uxbridge Road", "alt_name": "Shepherd's Bush (Central line)", "fare_zone": "2", "line": "Central", "name": "Shepherd's Bush", "naptan:AtcoCode": "9400ZZLUSBC", "network": "London Underground", "operator": "London Underground", "public_transport": "station", "railway": "station", "source": "Survey of 2014-06-13", "station": "subway", "subway": "yes", "wheelchair": "no", "wikidata": "Q1211566", "wikipedia": "en:Shepherd's Bush tube station"}}, {"type": "node", "id": 6410209280, "lat": 51.5134749, "lon": -0.2177873, "tags": {"addr:city": "London", "addr:postcode": "W10 6SZ", "addr:street": "Bramley Road", "fare_zone": "2", "line": "Hammersmith & City;Circle", "name": "Latimer Road", "naptan:AtcoCode": "940GZZLULRD", "network": "London Underground", "operator": "Transport for London", "public_transport": "station", "railway": "station", "source_ref": "https//en.wikipedia.org/wiki/List_of_London_Underground_stations", "station": "subway", "subway": "yes", "wheelchair": "no", "wikidata": "Q736375", "wikipedia": "en:Latimer Road tube station"}}, {"type": "node", "id": 6411663490, "lat": 51.5350704, "lon": -0.1943721, "tags": {"fare_zone": "2", "line": "Bakerloo", "name": "Kilburn Park", "naptan:AtcoCode": "940GZZLUKPK", "network": "London Underground", "public_transport": "station", "railway": "station", "ref": "ZKP", "source_ref": "http://en.wikipedia.org/wiki/List_of_London_Underground_stations#cite_note-usage-6", "station": "subway", "subway": "yes", "wheelchair": "no", "wikidata": "Q949382", "wikipedia": "en:Kilburn Park tube station"}}, {"type": "node", "id": 6411718929, "lat": 51.5190222, "lon": -0.1874439, "tags": {"addr:city": "London", "addr:country": "GB", "addr:postcode": "W2 6ET", "addr:street": "Lord Hills Bridge", "fare_zone": "2", "line": "Circle;Hammersmith & City", "name": "Royal Oak", "naptan:AtcoCode": "940GZZLURYO", "network": "London Underground", "operator": "Transport for London", "public_transport": "station", "railway": "station", "ref": "ZRY", "station": "subway", "subway": "yes", "wheelchair": "no", "wikidata": "Q1757115", "wikipedia": "en:Royal Oak tube station"}}, {"type": "node", "id": 6411776703, "lat": 51.5122764, "lon": -0.1883854, "tags": {"fare_zone": "1", "line": "Circle;District", "name": "Bayswater", "name:ru": "\u0411\u0435\u0439\u0441\u0443\u043e\u0442\u0435\u0440", "naptan:AtcoCode": "940GZZLUBWT", "network": "London Underground", "operator": "London Underground", "platforms": "2", "public_transport": "station", "railway": "station", "start_date": "1868-10-01", "station": "subway", "subway": "yes", "wheelchair": "no", "wikidata": "Q812631", "wikimedia_commons": "Category:Bayswater tube station", "wikipedia": "en:Bayswater tube station"}}, {"type": "node", "id": 6411792033, "lat": 51.5002995, "lon": -0.1921096, "tags": {"fare_zone": "1", "line": "Circle;District", "name": "High Street Kensington", "name:ru": "\u0425\u0430\u0439 \u0421\u0442\u0440\u0438\u0442 \u041a\u0435\u043d\u0441\u0438\u043d\u0433\u0442\u043e\u043d", "naptan:AtcoCode": "940GZZLUHSK", "network": "London Underground", "platforms": "2", "public_transport": "station", "railway": "station", "ref": "ZHS", "source": "Bing", "start_date": "1868-10-01", "station": "subway", "subway": "yes", "wheelchair": "no", "wheelchair:description": "Step access only to all platforms from booking office and gateline.", "wikidata": "Q634345", "wikimedia_commons": "Category:High Street Kensington tube station", "wikipedia": "en:High Street Kensington tube station"}}, {"type": "node", "id": 6411992668, "lat": 51.4945266, "lon": -0.1837696, "tags": {"fare_zone": "1", "line": "Circle;District;Piccadilly", "name": "Gloucester Road", "name:da": "Gloucester Road Station", "name:ru": "\u0413\u043b\u043e\u0441\u0442\u0435\u0440 \u0420\u043e\u0443\u0434", "naptan:AtcoCode": "940GZZLUGTR", "network": "London Underground", "public_transport": "station", "railway": "station", "source": "GPX;OS;survey for wheelmap 3/1/2020", "station": "subway", "subway": "yes", "wheelchair": "no", "wheelchair:description": "Step-free from train to Circle line platforms 2 & 3 to view Mural on north retaining wall. Stairs only between platforms and to booking office and gateline.", "wikidata": "Q1431088", "wikipedia": "en:Gloucester Road tube station"}}, {"type": "node", "id": 6414013291, "lat": 51.513435, "lon": -0.1582531, "tags": {"alt_name:ru": "\u041c\u0440\u0430\u043c\u043e\u0440\u043d\u0430\u044f \u0430\u0440\u043a\u0430", "fare_zone": "1", "line": "Central", "name": "Marble Arch", "name:da": "Marble Arch Station", "name:ru": "\u041c\u0430\u0440\u0431\u043b-\u0410\u0440\u0447", "naptan:AtcoCode": "940GZZLUMBA", "network": "London Underground", "public_transport": "station", "railway": "station", "source": "OS", "station": "subway", "subway": "yes", "wheelchair": "no", "wikidata": "Q786259", "wikipedia": "en:Marble Arch tube station"}}, {"type": "node", "id": 6414039764, "lat": 51.5238146, "lon": -0.1437048, "tags": {"check_date:wheelchair": "2025-02-18", "fare_zone": "1", "line": "Circle;Metropolitan;Hammersmith & City", "name": "Great Portland Street", "name:da": "Great Portland Street", "naptan:AtcoCode": "940GZZLUGPS", "network": "London Underground", "old_name": "Portland Road", "platforms": "2", "public_transport": "station", "railway": "station", "source": "OS", "station": "subway", "subway": "yes", "wheelchair": "no", "wikidata": "Q946924", "wikipedia": "en:Great Portland Street tube station"}}, {"type": "node", "id": 6414086721, "lat": 51.5247178, "lon": -0.1385303, "tags": {"fare_zone": "1", "line": "Northern;Victoria", "name": "Warren Street", "naptan:AtcoCode": "940GZZLUWRR", "network": "London Underground", "network:wikidata": "Q20075", "old_name": "Euston Road", "operator": "Transport for London", "operator:wikidata": "Q682520", "public_transport": "station", "railway": "station", "source": "survey", "station": "subway", "subway": "yes", "wheelchair": "no", "wikidata": "Q1366438", "wikipedia": "en:Warren Street tube station"}}, {"type": "node", "id": 6414100096, "lat": 51.5205978, "lon": -0.1343573, "tags": {"addr:city": "London", "addr:postcode": "W1T 2HF", "addr:street": "Tottenham Court Road", "fare_zone": "1", "line": "Northern", "name": "Goodge Street", "name:ru": "\u0413\u0443\u0434\u0436-\u0441\u0442\u0440\u0438\u0442", "naptan:AtcoCode": "940GZZLUGDG", "network": "London Underground", "network:wikidata": "Q20075", "not:network:wikidata": "Q746021", "operator": "Transport for London", "operator:wikidata": "Q682520", "public_transport": "station", "railway": "station", "start_date": "1907-06-22", "station": "subway", "subway": "yes", "wheelchair": "no", "wheelchair:description": "No level access", "wikidata": "Q746880", "wikipedia": "en:Goodge Street tube station"}}, {"type": "node", "id": 6414163635, "lat": 51.5463679, "lon": -0.1036544, "tags": {"addr:city": "London", "addr:country": "GB", "addr:housename": "Highbury & Islington Station", "addr:postcode": "N5 1RA", "addr:street": "Holloway Road", "alt_name": "Highbury and Islington ELL", "fare_zone": "2", "internet_access": "wlan", "internet_access:fee": "partial", "line": "Mildmay;Victoria;Windrush", "name": "Highbury & Islington", "name:el": "\u03a7\u03af\u03b2\u03c5\u03c1\u03ae & \u038a\u03c3\u03bb\u03b9\u03bd\u03b3\u03ba\u03c4\u03bf\u03bd", "naptan:AtcoCode": "9100HIGHBYA", "network": "National Rail;London Underground;London Overground", "network:website": "https://www.nationalrail.co.uk/stations/hhy/", "network:wikidata": "Q26334", "operator": "London Underground", "platforms": "8", "public_transport": "station", "railway": "station", "ref:crs": "HHY", "source": "survey", "station": "subway", "subway": "yes", "website:overground": "https://tfl.gov.uk/overground/stop/910GHGHI/highbury-islington-rail-station", "website:tube": "https://tfl.gov.uk/tube/stop/940GZZLUHAI/highbury-islington-underground-station", "wheelchair": "limited", "wheelchair:description": "Level street access. Lifts from concourse to Overground platforms (1,2,7,8) + portable ramps. Escalators, then stairs to Victoria and GN platforms (3,4,5,6) No interchange underground.", "wikidata": "Q800922", "wikipedia": "en:Highbury & Islington station"}}, {"type": "node", "id": 6436632903, "lat": 51.5493524, "lon": -0.222223, "tags": {"check_date:wheelchair": "2025-03-01", "fare_zone": "2;3", "levels": "2", "line": "Jubilee", "name": "Willesden Green", "naptan:AtcoCode": "9400ZZLUWIG", "network": "London Underground", "public_transport": "station", "railway": "station", "station": "subway", "subway": "yes", "wheelchair": "no", "wikidata": "Q1857104", "wikipedia": "en:Willesden Green tube station"}}, {"type": "node", "id": 6436648511, "lat": 51.5469889, "lon": -0.2053385, "tags": {"fare_zone": "2", "layer": "1", "line": "Jubilee", "name": "Kilburn", "naptan:AtcoCode": "9400ZZLUKBN", "network": "London Underground", "public_transport": "station", "railway": "station", "source_ref": "http://en.wikipedia.org/wiki/List_of_London_Underground_stations#cite_note-usage-6", "station": "subway", "subway": "yes", "wheelchair": "limited", "wikidata": "Q1741248", "wikipedia": "en:Kilburn tube station"}}, {"type": "node", "id": 6436743186, "lat": 51.5183524, "lon": -0.280413, "tags": {"fare_zone": "3", "line": "Central", "name": "West Acton", "naptan:AtcoCode": "940GZZLUWTA", "network": "London Underground", "public_transport": "station", "railway": "station", "station": "subway", "subway": "yes", "wheelchair": "no", "wikidata": "Q1363805", "wikipedia": "en:West Acton tube station"}}, {"type": "node", "id": 6438780655, "lat": 51.4632072, "lon": -0.3004127, "tags": {"fare_zone": "4", "line": "District", "name": "Richmond", "naptan:AtcoCode": "940GZZLURMD", "network": "National Rail;London Underground;London Overground", "network:website": "https://www.nationalrail.co.uk/stations/rmd/", "network:wikidata": "Q26334", "operator": "South Western Railway", "public_transport": "station", "railway": "station", "ref:crs": "RMD", "source_ref": "https://en.wikipedia.org/wiki/Richmond_station_(London)", "station": "subway", "subway": "yes", "train": "yes", "wheelchair": "yes", "wikidata": "Q801366", "wikipedia": "en:Richmond station (London)"}}, {"type": "node", "id": 6438904139, "lat": 51.4913757, "lon": -0.2755244, "tags": {"fare_zone": "3", "line": "District", "name": "Gunnersbury", "naptan:AtcoCode": "9100GNRSBRY", "network": "London Underground;London Overground", "network:website": "https://www.nationalrail.co.uk/stations/gun/", "network:wikidata": "Q26334", "operator": "London Underground", "public_transport": "station", "railway": "station", "ref:crs": "GUN", "source": "NPE", "source:network": "Sign", "source_ref": "https//en.wikipedia.org/wiki/List_of_London_Underground_stations", "station": "subway", "subway": "yes", "train": "yes", "wheelchair": "limited", "wheelchair:description": "You can change between the District line and London Overground services. Access from platform to train by manual boarding ramp.", "wikidata": "Q800858", "wikipedia": "en:Gunnersbury station"}}, {"type": "node", "id": 6438945825, "lat": 51.5441099, "lon": -0.2762285, "tags": {"fare_zone": "3", "layer": "1", "line": "Bakerloo", "name": "Stonebridge Park", "naptan:AtcoCode": "9100STNBGPK", "network": "London Underground;London Overground", "network:subway": "London Overground", "network:train": "London Overground", "network:website": "https://www.nationalrail.co.uk/stations/sbp/", "network:wikidata": "Q26334", "operator": "Transport for London", "public_transport": "station", "railway": "station", "ref:crs": "SBP", "ref:stanox": "72098", "ref:tiploc": "STNBGPK", "source:network": "Sign", "station": "subway", "subway": "yes", "wheelchair": "no", "wikidata": "Q801474", "wikipedia": "en:Stonebridge Park station"}}, {"type": "node", "id": 6438961931, "lat": 51.5321956, "lon": -0.2435041, "tags": {"addr:city": "London", "addr:postcode": "NW10 4UY", "addr:street": "Station Approach", "fare_zone": "2;3", "line": "Bakerloo", "name": "Willesden Junction", "naptan:AtcoCode": "9100WLSDNJL", "network": "London Underground;London Overground", "network:subway": "London Underground", "network:train": "London Overground", "network:website": "https://www.nationalrail.co.uk/stations/wij/", "network:wikidata": "Q26334", "operator": "London Overground", "public_transport": "station", "railway": "station", "ref:crs": "WIJ", "station": "subway", "subway": "yes", "wheelchair": "yes", "wikidata": "Q801623", "wikipedia": "en:Willesden Junction station"}}, {"type": "node", "id": 6439741490, "lat": 51.5519333, "lon": -0.2390026, "tags": {"fare_zone": "3", "line": "Jubilee", "name": "Dollis Hill", "naptan:AtcoCode": "940GZZLUDOH", "network": "London Underground", "public_transport": "station", "railway": "station", "station": "subway", "subway": "yes", "wheelchair": "no", "wikidata": "Q1235761", "wikipedia": "en:Dollis Hill tube station"}}, {"type": "node", "id": 6440680616, "lat": 51.5209265, "lon": -0.2014098, "tags": {"fare_zone": "2", "line": "Hammersmith & City;Circle", "name": "Westbourne Park", "name:ru": "\u0423\u044d\u0441\u0442\u0431\u0443\u0440\u043d-\u043f\u0430\u0440\u043a", "naptan:AtcoCode": "940GZZLUWSP", "network": "London Underground", "public_transport": "station", "railway": "station", "station": "subway", "subway": "yes", "wheelchair": "no", "wikidata": "Q1857925", "wikipedia": "en:Westbourne Park tube station"}}, {"type": "node", "id": 6448645467, "lat": 51.4771341, "lon": -0.284962, "tags": {"fare_zone": "3;4", "line": "District", "name": "Kew Gardens", "naptan:AtcoCode": "9100KEWGRDN", "network": "London Underground;London Overground", "network:website": "https://www.nationalrail.co.uk/stations/kwg/", "network:wikidata": "Q26334", "platforms": "2", "public_transport": "station", "railway": "station", "ref:crs": "KWG", "source": "http://www.tfl.gov.uk/gettingaround/stations/1000125.aspx", "source_ref": "http://en.wikipedia.org/wiki/List_of_London_railway_stations;http://en.wikipedia.org/wiki/London_Overground#Stations;http://en.wikipedia.org/wiki/Kew_Gardens_station_(London)", "station": "subway", "subway": "yes", "wheelchair": "yes", "wheelchair:description": "Step-free access street to platform", "wikidata": "Q801000", "wikipedia": "en:Kew Gardens station (London)"}}, {"type": "node", "id": 6452489646, "lat": 51.5402677, "lon": 0.0793235, "tags": {"addr:city": "Barking", "addr:country": "GB", "addr:postcode": "IG11 8TU", "addr:street": "Station Parade", "fare_zone": "4", "line": "District;Hammersmith & City", "name": "Barking", "naptan:AtcoCode": "9100BARKING", "network": "National Rail;London Underground;London Overground", "network:website": "https://www.nationalrail.co.uk/stations/bkg/", "network:wikidata": "Q26334", "operator": "c2c", "platforms": "8", "public_transport": "station", "railway": "station", "ref:crs": "BKG", "source": "Survey of 2014-08-08", "station": "subway", "subway": "yes", "train": "yes", "wheelchair": "yes", "wikidata": "Q800451", "wikipedia": "en:Barking station"}}, {"type": "node", "id": 6460794385, "lat": 51.5172639, "lon": -0.2111019, "tags": {"fare_zone": "2", "line": "Circle;Hammersmith & City", "name": "Ladbroke Grove", "name:ru": "\u041b\u044d\u0434\u0431\u0440\u043e\u043a-\u0413\u0440\u043e\u0443\u0432", "naptan:AtcoCode": "940GZZLULAD", "network": "London Underground", "operator": "Transport for London", "public_transport": "station", "railway": "station", "source_ref": "https//en.wikipedia.org/wiki/List_of_London_Underground_stations", "station": "subway", "subway": "yes", "wheelchair": "no", "wikidata": "Q1411854", "wikipedia": "en:Ladbroke Grove tube station"}}, {"type": "node", "id": 6466252813, "lat": 51.538266, "lon": 0.099626, "tags": {"addr:city": "Barking", "addr:country": "GB", "addr:housename": "Upney station", "addr:postcode": "IG11 9LS", "addr:street": "Upney Lane", "fare_zone": "4", "layer": "1", "line": "District", "name": "Upney", "naptan:AtcoCode": "940GZZLUUPY", "network": "London Underground", "network:wikidata": "Q20075", "not:network:wikidata": "Q746021", "operator": "Transport for London", "platforms": "2", "public_transport": "station", "railway": "station", "source": "Survey of 2014-09-04", "station": "subway", "subway": "yes", "wheelchair": "yes", "wikidata": "Q1761206", "wikipedia": "en:Upney tube station"}}, {"type": "node", "id": 6468357440, "lat": 51.533873, "lon": -0.2054958, "tags": {"addr:city": "London", "addr:country": "GB", "addr:housename": "Queen's Park Station", "addr:postcode": "NW6 6NL", "addr:street": "Salusbury Road", "fare_zone": "2", "line": "Bakerloo", "name": "Queen's Park", "naptan:AtcoCode": "9100QPRK", "network": "London Underground;London Overground", "network:subway": "London Underground", "network:train": "London Overground", "network:website": "https://www.nationalrail.co.uk/stations/qpw/", "network:wikidata": "Q26334", "note:wheelchair": "No entry/exit", "operator": "London Underground", "public_transport": "station", "railway": "station", "ref:crs": "QPW", "source:network": "Sign", "source_ref": "http://en.wikipedia.org/wiki/List_of_London_railway_stations;http://en.wikipedia.org/wiki/London_Overground#Stations", "station": "subway", "subway": "yes", "train": "yes", "wheelchair": "no", "wikidata": "Q801347", "wikipedia": "en:Queen's Park station (England)"}}, {"type": "node", "id": 6468432388, "lat": 51.5881223, "lon": -0.0599366, "tags": {"fare_zone": "3", "line": "Victoria", "name": "Tottenham Hale", "naptan:AtcoCode": "9100TTNHMHL", "network": "National Rail;London Underground", "network:website": "https://www.nationalrail.co.uk/stations/tom/", "network:wikidata": "Q26334", "old_name": "Tottenham", "operator": "Abellio Greater Anglia", "platforms": "2", "public_transport": "station", "railway": "station", "ref:crs": "TOM", "source": "local knowledge", "source_ref": "https//en.wikipedia.org/wiki/List_of_London_railway_stations", "station": "subway", "subway": "yes", "train": "yes", "wheelchair": "yes", "wikidata": "Q801529", "wikipedia": "en:Tottenham Hale station"}}, {"type": "node", "id": 6472438171, "lat": 51.5071908, "lon": -0.2055243, "tags": {"description": "reopened", "fare_zone": "2", "line": "Central", "name": "Holland Park", "name:ru": "\u0425\u043e\u043b\u043b\u0430\u043d\u0434-\u043f\u0430\u0440\u043a", "naptan:AtcoCode": "940GZZLUHPK", "network": "London Underground", "operator": "Transport for London", "public_transport": "station", "railway": "station", "source": "Survey of 2015-12-20", "station": "subway", "subway": "yes", "wheelchair": "no", "wikidata": "Q615430", "wikipedia": "en:Holland Park tube station"}}, {"type": "node", "id": 6472516924, "lat": 51.5256866, "lon": -0.1355703, "tags": {"fare_zone": "1", "indoor": "area", "layer": "-2", "level": "-2", "line": "Metropolitan;Circle;Hammersmith & City", "name": "Euston Square", "name:ru": "\u042e\u0441\u0442\u043e\u043d-\u0441\u043a\u0432\u0435\u0440", "naptan:AtcoCode": "940GZZLUESQ", "network": "London Underground", "old_name": "Gower Street", "operator": "Transport for London", "platforms": "2", "public_transport": "station", "railway": "station", "source": "Local knowledge", "start_date": "1863-01-10", "station": "subway", "subway": "yes", "wheelchair": "limited", "wheelchair:description": "You can only enter and exit the westbound Hammersmith & City, Circle and Metropolitan lines platform.", "wikidata": "Q1366453", "wikimedia_commons": "Category:Euston Square tube station", "wikipedia": "en:Euston Square tube station"}}, {"type": "node", "id": 6486933492, "lat": 51.575646, "lon": 0.0286373, "tags": {"fare_zone": "4", "line": "Central", "name": "Wanstead", "naptan:AtcoCode": "940GZZLUWSD", "network": "London Underground", "network:wikidata": "Q20075", "not:network:wikidata": "Q111297173", "operator": "Transport for London", "public_transport": "station", "railway": "station", "source_ref": "http://en.wikipedia.org/wiki/List_of_London_Underground_stations", "station": "subway", "subway": "yes", "wheelchair": "no", "wikidata": "Q663938", "wikipedia": "en:Wanstead tube station"}}, {"type": "node", "id": 6486933493, "lat": 51.5104729, "lon": -0.1872329, "tags": {"fare_zone": "1", "line": "Central", "name": "Queensway", "name:ru": "\u041a\u0432\u0438\u043d\u0441\u0432\u0435\u0439", "naptan:AtcoCode": "940GZZLUQWY", "network": "London Underground", "public_transport": "station", "railway": "station", "station": "subway", "subway": "yes", "wheelchair": "no", "wikidata": "Q649184", "wikipedia": "en:Queensway tube station"}}, {"type": "node", "id": 6758474985, "lat": 51.5236277, "lon": -0.1466357, "tags": {"description": "This station has Wadsworth lifts modernised by Otis.", "fare_zone": "1", "line": "Bakerloo", "name": "Regent's Park", "name:da": "Regent's Park Station", "name:ru": "\u0420\u0438\u0434\u0436\u0435\u043d\u0442\u0441-\u043f\u0430\u0440\u043a", "naptan:AtcoCode": "940GZZLURGP", "network": "London Underground", "network:wikidata": "Q20075", "public_transport": "station", "railway": "station", "station": "subway", "subway": "yes", "wheelchair": "no", "wikidata": "Q1259474", "wikipedia": "en:Regent's Park tube station"}}, {"type": "node", "id": 6758474986, "lat": 51.5297928, "lon": -0.1857906, "tags": {"fare_zone": "2", "line": "Bakerloo", "name": "Maida Vale", "name:ru": "\u041c\u0435\u0439\u0434\u0430-\u0432\u0435\u0439\u043b", "naptan:AtcoCode": "940GZZLUMVL", "network": "London Underground", "public_transport": "station", "railway": "station", "ref": "ZMV", "station": "subway", "subway": "yes", "wheelchair": "no", "wikidata": "Q1885195", "wikipedia": "en:Maida Vale tube station"}}, {"type": "node", "id": 6761071700, "lat": 51.597416, "lon": -0.1097795, "tags": {"fare_zone": "3", "line": "Piccadilly", "name": "Wood Green", "name:ru": "\u0412\u0443\u0434-\u0433\u0440\u0438\u043d", "naptan:AtcoCode": "940GZZLUWOG", "network": "London Underground", "network:wikidata": "Q20075", "operator": "Transport for London", "operator:wikidata": "Q682520", "public_transport": "station", "railway": "station", "station": "subway", "subway": "yes", "wheelchair": "no", "wikidata": "Q945882", "wikipedia": "en:Wood Green tube station"}}, {"type": "node", "id": 6761076726, "lat": 51.5703208, "lon": -0.0963971, "tags": {"fare_zone": "2;3", "line": "Piccadilly", "name": "Manor House", "name:ru": "\u041c\u044d\u043d\u043e\u0440-\u0445\u0430\u0443\u0441", "naptan:AtcoCode": "940GZZLUMRH", "network": "London Underground", "network:wikidata": "Q20075", "operator": "Transport for London", "operator:wikidata": "Q682520", "platforms": "2", "public_transport": "station", "railway": "station", "station": "subway", "subway": "yes", "wheelchair": "no", "wikidata": "Q1549573", "wikipedia": "en:Manor House tube station"}}, {"type": "node", "id": 6797794418, "lat": 51.5012094, "lon": -0.0935834, "tags": {"fare_zone": "1", "internet_access": "wlan", "line": "Northern", "name": "Borough", "name:da": "Borough Station", "name:ru": "\u0411\u043e\u0440\u043e", "naptan:AtcoCode": "940GZZLUBOR", "network": "London Underground", "network:wikidata": "Q20075", "public_transport": "station", "railway": "station", "source_ref": "http://en.wikipedia.org/wiki/List_of_London_Underground_stations", "station": "subway", "subway": "yes", "toilets:wheelchair": "no", "wheelchair": "yes", "wikidata": "Q894073", "wikipedia": "en:Borough tube station"}}, {"type": "node", "id": 6932246807, "lat": 51.5272449, "lon": -0.054752, "tags": {"fare_zone": "2", "layer": "-2", "line": "Central", "location": "underground", "name": "Bethnal Green", "name:ru": "\u0411\u044d\u0442\u043d\u0430\u043b-\u0433\u0440\u0438\u043d", "naptan:AtcoCode": "940GZZLUBLG", "network": "London Underground", "operator": "Transport for London", "platforms": "2", "public_transport": "station", "public_transport:version": "2", "railway": "station", "source_ref": "http://en.wikipedia.org/wiki/List_of_London_Underground_stations", "start_date": "1946-12-04", "station": "subway", "subway": "yes", "wheelchair": "no", "wikidata": "Q831397", "wikimedia_commons": "Category:Bethnal Green tube station", "wikipedia": "en:Bethnal Green tube station"}}, {"type": "node", "id": 7175566127, "lat": 51.5523278, "lon": -0.2966751, "tags": {"fare_zone": "4", "line": "Bakerloo", "name": "Wembley Central", "naptan:AtcoCode": "9100WMBY", "network": "National Rail;London Underground;London Overground", "network:subway": "London Underground", "network:train": "London Overground", "network:website": "https://www.nationalrail.co.uk/stations/wmb/", "network:wikidata": "Q26334", "operator": "London Underground", "public_transport": "station", "railway": "station", "ref:crs": "WMB", "ref:tiploc": "WMBY", "source:network": "Sign", "station": "subway", "subway": "yes", "train": "yes", "wheelchair": "yes", "wheelchair:description": "Step-free access street to platform", "wikidata": "Q801594", "wikipedia": "en:Wembley Central station"}}, {"type": "node", "id": 9097860107, "lat": 51.4801837, "lon": -0.1296937, "tags": {"fare_zone": "1", "line": "Northern", "name": "Nine Elms", "naptan:AtcoCode": "940GZZNEUGST", "network": "London Underground", "network:wikidata": "Q20075", "platforms": "2", "public_transport": "station", "railway": "station", "station": "subway", "subway": "yes", "wheelchair": "yes", "wheelchair:description": "Step-free access street to train", "wikidata": "Q18619284", "wikipedia": "en:Nine Elms tube station"}}, {"type": "node", "id": 9097860108, "lat": 51.4796154, "lon": -0.1429709, "tags": {"fare_zone": "1", "line": "Northern", "name": "Battersea Power Station", "naptan:AtcoCode": "940GZZBPSUST", "network": "London Underground", "network:wikidata": "Q20075", "platforms": "2", "public_transport": "station", "railway": "station", "station": "subway", "subway": "yes", "wheelchair": "yes", "wheelchair:description": "Step-free access street to train", "wikidata": "Q18619174", "wikipedia": "en:Battersea Power Station tube station"}}, {"type": "node", "id": 9338919894, "lat": 51.5043924, "lon": -0.1475571, "tags": {"disused:railway": "station", "name": "Down Street", "network": "London Underground", "network:wikidata": "Q20075", "railway": "site", "station": "subway", "subway": "yes"}}, {"type": "node", "id": 9338929237, "lat": 51.5436058, "lon": -0.1753436, "tags": {"historic:railway": "station", "name": "Swiss Cottage", "railway": "site", "station": "subway", "subway": "yes"}}, {"type": "node", "id": 9338930519, "lat": 51.5368465, "lon": -0.1759862, "tags": {"historic:railway": "station", "name": "Marlborough Road", "railway": "site", "station": "subway", "subway": "yes"}}, {"type": "node", "id": 9432179604, "lat": 51.538426, "lon": -0.1225262, "tags": {"historic:railway": "station", "name": "York Road", "railway": "site", "station": "subway", "subway": "yes", "wikidata": "Q2600828", "wikipedia": "en:York Road tube station"}}, {"type": "node", "id": 9476700849, "lat": 51.5313119, "lon": -0.2892087, "tags": {"historic:railway": "station", "name": "Park Royal and Tywford Abbey", "railway": "site", "station": "subway", "subway": "yes", "wikidata": "Q2052560", "wikipedia": "en:Park Royal & Twyford Abbey tube station"}}, {"type": "node", "id": 9484741999, "lat": 51.5177908, "lon": -0.0652014, "tags": {"historic:railway": "station", "name": "St. Mary's (Whitechapel Road)", "railway": "site", "station": "subway", "subway": "yes", "wikidata": "Q2324010", "wikipedia": "en:St Mary's (Whitechapel Road) tube station"}}]}